{"type": "FeatureCollection", "features": [{"type": "Feature", "geometry": {"type": "LineString", "coordinates": [[75.8487089, 22.704294], [75.8487042, 22.7044809], [75.848473, 22.7055249], [75.8480867, 22.7061979], [75.8474215, 22.7067323], [75.8471641, 22.7073856], [75.8469924, 22.7080784], [75.8472928, 22.7083951], [75.8481297, 22.7085336], [75.8490738, 22.7087118], [75.8499026, 22.7087576], [75.8507354, 22.7088454], [75.8514428, 22.7092128], [75.8520377, 22.7095927], [75.8525321, 22.710384], [75.8528074, 22.711285], [75.8528289, 22.7120174], [75.8525928, 22.7127695], [75.8527645, 22.7134821], [75.8528933, 22.7140561], [75.8533224, 22.7142739], [75.8538159, 22.7144124], [75.8543309, 22.7143728], [75.8550646, 22.7141595], [75.8556439, 22.7139418], [75.8560945, 22.7136647], [75.8562877, 22.7134469], [75.8564808, 22.7129917], [75.8565237, 22.7126354], [75.8564379, 22.7122791], [75.8563306, 22.7119228], [75.8563301, 22.7116876], [75.8565666, 22.7114082], [75.8569051, 22.7113243], [75.8572533, 22.7113092], [75.8578541, 22.7114478], [75.8583476, 22.7120416], [75.8588626, 22.7127937], [75.8594983, 22.7137599], [75.8596699, 22.7145912], [75.8594714, 22.7156254], [75.8593936, 22.7161945], [75.8590945, 22.7174804], [75.8588492, 22.7184641]]}, "properties": {"name": "Saraswathi", "waterway": "river", "source_id": "way/169028701", "edited_at": "2019-06-07T16:56:11Z"}}, {"type": "Feature", "geometry": {"type": "LineString", "coordinates": [[75.8770987, 22.7050267], [75.8769185, 22.7056058], [75.8766664, 22.7059598], [75.8763579, 22.7061681], [75.8762826, 22.7062167], [75.8759779, 22.7063138], [75.8748717, 22.7065128], [75.8744514, 22.7066109], [75.8741721, 22.7067508], [75.8739858, 22.7069839], [75.873648, 22.7075067], [75.8733527, 22.7078797], [75.8731931, 22.7080564], [75.8730095, 22.7081595], [75.8722939, 22.7085202], [75.8720731, 22.7086724], [75.8717042, 22.7090364], [75.8715508, 22.7092855], [75.8713781, 22.709548], [75.8711786, 22.7098424], [75.8706865, 22.7101615], [75.870447, 22.7103578], [75.8702901, 22.7105713], [75.870181, 22.710883], [75.8700693, 22.711094], [75.8697394, 22.7114204], [75.8694308, 22.7115406], [75.8690238, 22.7116044], [75.8684465, 22.7117296], [75.8681512, 22.7118695], [75.8679596, 22.7121198], [75.8675792, 22.7123897], [75.8668689, 22.7127824], [75.8666096, 22.7130877], [75.8663364, 22.7133527], [75.8662027, 22.7139413], [75.8660643, 22.7145666], [75.8658156, 22.715192], [75.8655528, 22.7152723], [75.8653699, 22.715285], [75.8649118, 22.7152302], [75.8647473, 22.7151814], [75.86463, 22.7150908], [75.8645272, 22.7149607], [75.8644993, 22.7147777], [75.8644587, 22.714447], [75.8645408, 22.7141981], [75.8646464, 22.7140748], [75.8646041, 22.7139449], [75.8645609, 22.7137143], [75.8643579, 22.713509], [75.8639376, 22.7133655], [75.8635032, 22.7133427], [75.8626222, 22.7134781], [75.8618902, 22.7134889], [75.8615079, 22.7135474], [75.8612826, 22.7137053], [75.861102, 22.7140169], [75.8610527, 22.7142182], [75.8610926, 22.7144324], [75.8613507, 22.7149215], [75.8614351, 22.715153], [75.8614539, 22.7153889], [75.8613159, 22.7157191], [75.8612242, 22.7159227], [75.8611463, 22.7162111], [75.8609959, 22.7164679], [75.8609596, 22.7165313], [75.8609255, 22.716763], [75.8610206, 22.7175318], [75.8609925, 22.7178412], [75.8608986, 22.7180403], [75.860779, 22.7181528], [75.8601972, 22.7184341], [75.8597186, 22.718551], [75.8594395, 22.7185661], [75.8588492, 22.7184641], [75.8583626, 22.7193938], [75.8580622, 22.7201855], [75.8581481, 22.7210959], [75.8584988, 22.7217905], [75.8585179, 22.7218284], [75.8588347, 22.7226199], [75.8588562, 22.7231939], [75.858663, 22.7240252], [75.8584699, 22.7246387], [75.8586416, 22.7252919], [75.859178, 22.7257471], [75.8596716, 22.7264794], [75.8597359, 22.7269742], [75.8594999, 22.7273502], [75.8590493, 22.7277856], [75.8585343, 22.7284585], [75.8584914, 22.7288346], [75.8586683, 22.729178], [75.8592563, 22.7296755], [75.8596284, 22.7299994], [75.8600966, 22.7305136], [75.8606371, 22.7312689], [75.8611954, 22.7320757], [75.8615286, 22.7325083], [75.861815, 22.7327391], [75.8620677, 22.7328745], [75.8622541, 22.7331089], [75.8624335, 22.7333429], [75.8626141, 22.7335516], [75.8628258, 22.7340396], [75.8629458, 22.7342551], [75.8629949, 22.7345191], [75.8629834, 22.7348121], [75.8630191, 22.7349848], [75.8632446, 22.7352783], [75.8634401, 22.7355609], [75.8636938, 22.7357179], [75.8641609, 22.7360767], [75.8646497, 22.736248], [75.8649443, 22.7363277], [75.865214, 22.7364268], [75.8653813, 22.7367157], [75.8654866, 22.7370477], [75.8653209, 22.73792], [75.8648844, 22.7384873], [75.8644476, 22.7386078], [75.8641694, 22.7387266], [75.8638725, 22.7389803], [75.8637791, 22.7391786], [75.8637395, 22.7393905], [75.8634534, 22.739734], [75.8630975, 22.7399411], [75.8625065, 22.7401866], [75.8622716, 22.7403689], [75.8621981, 22.740679], [75.8621993, 22.7408832], [75.8622833, 22.741099], [75.8623296, 22.7412569], [75.8625073, 22.7414151], [75.8630968, 22.7418658], [75.8637307, 22.7421586], [75.8641387, 22.7423782], [75.8644128, 22.7426261], [75.8644781, 22.7428451], [75.8642741, 22.7434328], [75.8641068, 22.7437255], [75.8640482, 22.7439022], [75.8640376, 22.7440961], [75.8639619, 22.7442846], [75.8637855, 22.7445228], [75.8637387, 22.7447387], [75.8637482, 22.7450113], [75.8637859, 22.7452078], [75.8638805, 22.7453836], [75.863974, 22.7455316], [75.8646114, 22.7461287], [75.8648598, 22.7463021], [75.8653981, 22.7468988], [75.8654493, 22.7475342], [75.8653261, 22.7478403], [75.8650762, 22.7481257], [75.8644325, 22.7483433], [75.8637244, 22.7484819], [75.862976, 22.7488016], [75.8625898, 22.7491182], [75.8622036, 22.7497118], [75.861998, 22.7500248], [75.8617315, 22.7502263], [75.8614094, 22.7504152], [75.8609376, 22.7505034], [75.8597903, 22.7504498], [75.8593856, 22.7504676], [75.8591382, 22.7506609], [75.8588545, 22.7512257], [75.8588848, 22.7513912], [75.8588825, 22.7516295], [75.8589055, 22.7520578], [75.8588745, 22.752529], [75.8588074, 22.7530051], [75.8588308, 22.7533049], [75.8586732, 22.7535527], [75.8584666, 22.7538431], [75.8580673, 22.7542611], [75.8578781, 22.7543668], [75.8576716, 22.7544382], [75.857496, 22.7545572], [75.8573541, 22.7547379], [75.8572069, 22.7553999], [75.857083, 22.755657], [75.8569802, 22.75601], [75.8570366, 22.7562521], [75.8571264, 22.7564368], [75.8573955, 22.7568015], [75.8575115, 22.7570757], [75.8575941, 22.7574233], [75.8578195, 22.7578296], [75.858002, 22.7580612], [75.8581585, 22.7583632], [75.8579697, 22.7590762], [75.8575406, 22.760026], [75.8574333, 22.7607976], [75.8574548, 22.7613517], [75.8570537, 22.7621975], [75.8567962, 22.762613], [75.8565387, 22.7625537], [75.8562598, 22.7629098], [75.8563027, 22.7637408], [75.8567748, 22.7649676], [75.8573541, 22.7656601], [75.8580408, 22.7659371], [75.8588132, 22.7659371], [75.8594784, 22.7663724], [75.860444, 22.7665307], [75.8618388, 22.7664318], [75.86274, 22.7662735], [75.8638129, 22.7663724], [75.8643975, 22.7666286], [75.865551, 22.7678366], [75.8662376, 22.7688852], [75.8670101, 22.7697558], [75.8681259, 22.7706461], [75.8690486, 22.7719915], [75.8695206, 22.7724861], [75.8704218, 22.7727037], [75.8712587, 22.772862], [75.8716878, 22.7725653], [75.8727178, 22.7724465], [75.8741769, 22.7723674], [75.8750138, 22.77213], [75.8757029, 22.7714197], [75.8760038, 22.7709404], [75.876234, 22.7707907], [75.8764758, 22.7707639], [75.8770911, 22.7709447], [75.8773741, 22.7710418], [75.8780393, 22.7718728], [75.8781895, 22.7728027], [75.8782754, 22.7735941], [75.8788333, 22.7739304], [75.8796486, 22.7741085], [75.8810863, 22.7743657], [75.8821807, 22.7748207], [75.8825669, 22.7758297], [75.8821699, 22.777909], [75.8824703, 22.7785742], [75.8830164, 22.7790669], [75.8838962, 22.7792252], [75.8846901, 22.7796407], [75.8857201, 22.7805507], [75.8860634, 22.7813422], [75.886168, 22.7821904], [75.8858255, 22.7827469], [75.8858059, 22.7836049], [75.8860634, 22.784515], [75.8860213, 22.7848513], [75.8861091, 22.7850046], [75.8861286, 22.7850961], [75.886188, 22.7851978], [75.8861492, 22.7871066], [75.8862565, 22.7879968], [75.8863022, 22.7892159], [75.8861581, 22.7894311], [75.8861144, 22.7897179], [75.8862995, 22.7909048], [75.8868144, 22.7920324], [75.8870505, 22.7922302], [75.8874796, 22.7922302], [75.8875869, 22.7924478], [75.8874367, 22.7926654], [75.887265, 22.7929028], [75.887308, 22.7931798], [75.8875225, 22.7932787], [75.8882199, 22.7935507], [75.8888082, 22.7939291], [75.8890085, 22.7942184], [75.8894787, 22.7946659], [75.8895851, 22.7949355], [75.8894886, 22.7954794], [75.8892257, 22.7957787], [75.8890165, 22.7963448], [75.8888529, 22.7967998], [75.88881, 22.7973339], [75.8886813, 22.7978878], [75.8881448, 22.7981054], [75.8877897, 22.7982503], [75.887555, 22.7984601], [75.8873275, 22.7985191], [75.8871426, 22.7984928], [75.8869221, 22.7985125], [75.8867728, 22.7986174], [75.886723, 22.7987944], [75.8867372, 22.799037], [75.8866945, 22.7992337], [75.8866732, 22.7994566], [75.8866874, 22.7996402], [75.8867514, 22.7998631], [75.8868723, 22.800086], [75.886979, 22.8002564], [75.8871404, 22.8004093], [75.8874296, 22.8006272], [75.8877464, 22.8007338], [75.8878772, 22.8007825], [75.8880054, 22.8009285], [75.8883675, 22.8013434], [75.8886114, 22.8015961], [75.888758, 22.8017509], [75.8888554, 22.802137], [75.888986, 22.8023308], [75.8891771, 22.8024815], [75.8895844, 22.8027875], [75.8900119, 22.8032047], [75.8901662, 22.8034998], [75.8902308, 22.8037795], [75.8903173, 22.8041638], [75.8903991, 22.8043775], [75.8905512, 22.8046376], [75.8907647, 22.8048794], [75.8908649, 22.8051493], [75.8907644, 22.805452], [75.8906601, 22.8056081], [75.8904923, 22.8057398], [75.8901032, 22.8060014], [75.8898887, 22.8063036], [75.8896583, 22.8066714], [75.8896096, 22.8067741], [75.8896372, 22.8069202], [75.8896297, 22.8070268], [75.8895668, 22.8071474], [75.8894512, 22.8071868], [75.8893204, 22.8071961], [75.8891469, 22.8071775], [75.888717, 22.8071752], [75.8884379, 22.8071799], [75.8880733, 22.8072563], [75.8877766, 22.8075577], [75.8874749, 22.8079447], [75.8873969, 22.8081649], [75.8873793, 22.8083202], [75.8874019, 22.8085056], [75.8874648, 22.8086563], [75.8875578, 22.8088904], [75.8878017, 22.8091221], [75.8885736, 22.8098499], [75.8887616, 22.8100874], [75.8889825, 22.8103546], [75.8892805, 22.8105048], [75.8896415, 22.8105771], [75.8903934, 22.8105859], [75.8909246, 22.8105452], [75.8913129, 22.8105762], [75.891601, 22.8105939], [75.8919203, 22.8107144], [75.8921089, 22.8108048], [75.8924691, 22.8110417], [75.892638, 22.8114387], [75.892772, 22.811855], [75.8926645, 22.8122812], [75.8924986, 22.8125918], [75.8919706, 22.8134099], [75.8914576, 22.8142072], [75.8912565, 22.8145896], [75.8911207, 22.8149025], [75.8911433, 22.8150694], [75.8911861, 22.8152131], [75.8912439, 22.8153197], [75.8914074, 22.8154309], [75.8916437, 22.8155885], [75.8920938, 22.815818], [75.8925212, 22.8159478], [75.892745, 22.8161656], [75.8932755, 22.8165735], [75.8935647, 22.8169235], [75.8937206, 22.817095], [75.8940952, 22.8171924], [75.8943869, 22.8172433], [75.8946056, 22.8172341], [75.8948772, 22.8172039], [75.8950784, 22.8171599], [75.8953046, 22.8170996], [75.8955661, 22.8169977], [75.8957723, 22.8169745], [75.895986, 22.8169722], [75.8963582, 22.8169629], [75.8967077, 22.8169977], [75.8969742, 22.816949], [75.8971075, 22.8168702], [75.8973061, 22.816745], [75.8975047, 22.816555], [75.897648, 22.816409], [75.8977285, 22.8163835], [75.8978391, 22.8163835], [75.898156, 22.8164461], [75.8985658, 22.8165249], [75.8989228, 22.816599], [75.8991114, 22.8167033], [75.8993603, 22.8168632], [75.8994785, 22.8169907], [75.8996017, 22.8170811], [75.89973, 22.8171506], [75.9000392, 22.817343], [75.9001096, 22.8174264], [75.9000468, 22.817591], [75.8998305, 22.8178552], [75.8996872, 22.8180197], [75.8995816, 22.8182191], [75.8995062, 22.818328], [75.8993955, 22.8184694], [75.8990762, 22.8186478], [75.8986865, 22.8188657], [75.8985331, 22.8188912], [75.8983646, 22.8189398], [75.8981811, 22.8190441], [75.8980428, 22.8191901], [75.8979523, 22.8193709], [75.8976883, 22.8197788], [75.897648, 22.8200059], [75.8974394, 22.8201519], [75.8972734, 22.820342], [75.8970848, 22.8204764], [75.8968711, 22.8207128], [75.8967605, 22.8211554], [75.8967102, 22.8216676], [75.8967278, 22.8220199], [75.8966373, 22.8222516], [75.8965593, 22.8225251], [75.8964789, 22.8227128], [75.8963883, 22.8228542], [75.896235, 22.822977], [75.8961268, 22.8230674], [75.8958754, 22.8232505], [75.8958, 22.8233965], [75.8956994, 22.8235726], [75.8956189, 22.8237858], [75.8956164, 22.8239481], [75.8955837, 22.8241404], [75.8955008, 22.8243814], [75.8954832, 22.8245738], [75.8955335, 22.8249678], [75.8955712, 22.8252204], [75.8957447, 22.8255657], [75.8959634, 22.825802], [75.8962752, 22.8261613], [75.8966222, 22.8264417], [75.8969742, 22.8266247], [75.8971125, 22.8267082], [75.8974821, 22.8267453], [75.8976631, 22.8269167], [75.8980076, 22.8270836], [75.8983219, 22.8272736], [75.8984577, 22.8275332], [75.8985205, 22.8278484], [75.898518, 22.8278739], [75.8984853, 22.8280986], [75.89843, 22.8283512], [75.8982012, 22.8286803], [75.8980151, 22.8288889], [75.8978844, 22.8291299], [75.8977034, 22.8294404], [75.8975852, 22.8296953], [75.8975802, 22.8298182], [75.8976556, 22.8300545], [75.8978593, 22.8303187], [75.8979297, 22.8305111], [75.8979749, 22.8307359], [75.8979322, 22.8311205], [75.8978542, 22.8313708], [75.8977285, 22.8317208], [75.8974419, 22.8319386], [75.8972131, 22.832029], [75.8969591, 22.8321286], [75.8967152, 22.8323557], [75.896592, 22.8325712], [75.8965769, 22.8327149], [75.8965895, 22.832803], [75.8967554, 22.8330347], [75.8969264, 22.8331251], [75.8971376, 22.8332317], [75.8972709, 22.8332896], [75.8974444, 22.8333151], [75.897809, 22.8333035], [75.8979372, 22.8333197], [75.8980805, 22.8333661], [75.8982213, 22.8334379], [75.8984552, 22.833665], [75.8986085, 22.8339269], [75.898684, 22.8341262], [75.8987971, 22.8344344], [75.8990134, 22.8347983], [75.8993302, 22.8350416], [75.8994835, 22.8352455], [75.899569, 22.8354657], [75.8995439, 22.8356209], [75.8994785, 22.8357831], [75.899383, 22.835943], [75.8991567, 22.8362304], [75.8987091, 22.836629], [75.8985759, 22.8367379], [75.8985029, 22.8368839], [75.8984703, 22.8370067], [75.8984552, 22.8371712], [75.8984828, 22.8372778], [75.8985784, 22.8375258], [75.8986136, 22.8376926], [75.8986463, 22.8378455], [75.8986965, 22.8379799], [75.8987871, 22.8380981], [75.8988675, 22.838207], [75.8988977, 22.8384202], [75.8988927, 22.8385824], [75.8988726, 22.8387354], [75.8988625, 22.8388512], [75.8989002, 22.8389833], [75.898943, 22.8391154], [75.8990108, 22.8392498], [75.8991743, 22.8394468], [75.8992673, 22.8396507], [75.8992271, 22.8398082], [75.8991768, 22.8399867], [75.8991114, 22.8401721], [75.8990712, 22.8403088], [75.8989882, 22.8405196], [75.8989254, 22.8405961], [75.8988399, 22.8406564], [75.8987242, 22.8407375], [75.8986186, 22.8407375], [75.8984426, 22.8407097], [75.8981308, 22.8405382], [75.8978618, 22.8403713], [75.8974444, 22.8401095], [75.897296, 22.8400261], [75.8971326, 22.8400261], [75.8969667, 22.8400608], [75.8968233, 22.8401466], [75.8966473, 22.8404177], [75.8964361, 22.840705], [75.8962274, 22.8409877], [75.8961671, 22.8413886], [75.8962224, 22.8417315], [75.8963657, 22.8420397], [75.8965065, 22.8421811], [75.8966901, 22.8424267], [75.8969415, 22.8426306], [75.897457, 22.8428229], [75.8976682, 22.8428461], [75.8978668, 22.8428901], [75.8979724, 22.8429249], [75.8981434, 22.8429805], [75.8982817, 22.8430616], [75.8983672, 22.8431659], [75.89842, 22.8432539], [75.8984376, 22.8433628], [75.8984325, 22.84343], [75.8983194, 22.8436641], [75.8982817, 22.8439514], [75.8982113, 22.8440603], [75.898083, 22.8442132], [75.8979473, 22.8443917], [75.897814, 22.8445214], [75.8976003, 22.8446998], [75.897291, 22.8448852], [75.8971276, 22.8449779], [75.8970295, 22.8450636], [75.896944, 22.8451818], [75.896944, 22.845256], [75.8969717, 22.8454251], [75.8970144, 22.8455109], [75.8972835, 22.8457101], [75.8975475, 22.8457843], [75.897814, 22.8458098], [75.8980906, 22.845775], [75.8982515, 22.8457356], [75.89842, 22.8457101], [75.8985532, 22.8456985], [75.8987192, 22.8457055], [75.8988977, 22.8457611], [75.8989983, 22.8457889], [75.899305, 22.8458144], [75.8995489, 22.8457843], [75.8998632, 22.8457634], [75.9000971, 22.8457704], [75.9002379, 22.8458306], [75.9003133, 22.8459233], [75.9003736, 22.8459951], [75.900434, 22.8461457], [75.9004491, 22.8462431], [75.9004742, 22.8464261], [75.9004214, 22.8465188], [75.9002328, 22.8469197], [75.9000845, 22.8471676], [75.8998959, 22.8474897], [75.8998481, 22.8478396], [75.8998532, 22.8482566], [75.899911, 22.8484211], [75.8999638, 22.8485115], [75.9000468, 22.8486088], [75.9001373, 22.8486899], [75.900517, 22.8488591], [75.9008036, 22.8491533], [75.9010399, 22.849443], [75.9015227, 22.8497303], [75.9019049, 22.8500848], [75.9023323, 22.8504416], [75.902531, 22.8507544], [75.9025712, 22.8510186], [75.9025611, 22.8512457], [75.9025888, 22.8521145], [75.9026844, 22.852571], [75.9027095, 22.8528537], [75.9027145, 22.8530135], [75.9027145, 22.8531989], [75.9027548, 22.8533727], [75.9029081, 22.8535372], [75.9029987, 22.8537133], [75.903054, 22.8538523], [75.9031193, 22.8539797], [75.9031621, 22.8542972], [75.9031193, 22.8544501], [75.9029861, 22.8547165], [75.9027447, 22.8549088], [75.9025058, 22.8550085], [75.9022544, 22.8550455], [75.9018068, 22.8550664], [75.9015906, 22.8550595], [75.9012336, 22.8550502], [75.9010475, 22.8550826], [75.9009193, 22.8551707], [75.9008715, 22.8552819], [75.9008338, 22.8554835], [75.9008514, 22.8557615], [75.9009017, 22.8560928], [75.9010475, 22.8563894], [75.9012964, 22.8567138], [75.9015906, 22.8570126], [75.9020583, 22.8573486], [75.9022393, 22.8575919], [75.9023851, 22.8580993], [75.9024053, 22.8584352], [75.9024229, 22.8588036], [75.9025662, 22.8590075], [75.902712, 22.8591975], [75.903054, 22.8594593], [75.9032576, 22.8595682], [75.9034211, 22.8597072], [75.9034915, 22.8598601], [75.9036624, 22.8600246], [75.9038108, 22.8601335], [75.9040346, 22.860305], [75.9042382, 22.8604973], [75.9043665, 22.860729], [75.9044595, 22.8610163], [75.9044293, 22.8613916], [75.9043338, 22.8619268], [75.9040145, 22.8623299], [75.9038083, 22.8625431], [75.9036549, 22.8626242], [75.9034286, 22.8627655], [75.903323, 22.8629161], [75.9032249, 22.8631177], [75.9031948, 22.8634119], [75.9032023, 22.8635903], [75.9030615, 22.8638729], [75.9029408, 22.8639656], [75.9026944, 22.8640513], [75.9022519, 22.8640259], [75.9018772, 22.8639934], [75.9013165, 22.8638868], [75.9011782, 22.8639587], [75.9010927, 22.8640513], [75.9010148, 22.8641765], [75.9008815, 22.8643572], [75.9005974, 22.8648159], [75.900532, 22.865124], [75.9003988, 22.865497], [75.9001951, 22.865694], [75.8999713, 22.8658492], [75.8998255, 22.8658955], [75.899564, 22.865928], [75.8991542, 22.865972], [75.8988801, 22.8659465], [75.8986437, 22.8659048], [75.8984753, 22.8659117], [75.8982088, 22.8659534], [75.8980805, 22.8660809], [75.8977486, 22.866382], [75.8974746, 22.8666855], [75.8974922, 22.8668222], [75.8975148, 22.8669334], [75.8973725, 22.8672903], [75.8973654, 22.8674377], [75.8973725, 22.8677391], [75.8973867, 22.8679619], [75.8975468, 22.8685156], [75.8978206, 22.8693478], [75.8978312, 22.8700195], [75.8977068, 22.870275], [75.8975965, 22.870452], [75.8973476, 22.8705732], [75.8971449, 22.8705634], [75.8968889, 22.8705011], [75.8966293, 22.8703733], [75.8963911, 22.8702456], [75.8960533, 22.8700981], [75.8954097, 22.8700817], [75.8951394, 22.87018], [75.8949119, 22.8703569], [75.8947198, 22.870547], [75.8944425, 22.870986], [75.8940869, 22.8718477], [75.8939375, 22.8724014], [75.8939624, 22.8729157], [75.8940122, 22.873132], [75.8943109, 22.8734596], [75.8945705, 22.8736988], [75.8948621, 22.8739084], [75.8950292, 22.8740264], [75.8954275, 22.8742492], [75.8959893, 22.8743376], [75.8962844, 22.8744457], [75.8965049, 22.8745768], [75.8966329, 22.8747013], [75.8967751, 22.8748684], [75.8969458, 22.8752714], [75.8969814, 22.8754515], [75.8969245, 22.8756743], [75.8968889, 22.8757661], [75.8967182, 22.8762182], [75.8966436, 22.8765196], [75.8966116, 22.8767194], [75.8965831, 22.8769258], [75.8966613, 22.877165], [75.8968498, 22.8775123], [75.8969529, 22.8776499], [75.8971307, 22.8779251], [75.8975076, 22.8781904], [75.897913, 22.8783444], [75.8981726, 22.8784034], [75.8983575, 22.8784001], [75.8986562, 22.8783837], [75.8989833, 22.8783936], [75.89925, 22.8784624], [75.8994171, 22.8785246], [75.8995629, 22.878695], [75.8995558, 22.8788784], [75.8995487, 22.879075], [75.8995452, 22.8793764], [75.8994776, 22.8799071], [75.8992856, 22.8803789], [75.8990189, 22.8807884], [75.8987913, 22.8810734], [75.8983148, 22.8815615], [75.8979912, 22.8817188], [75.897721, 22.8817778], [75.8973121, 22.8818138], [75.8968391, 22.8820038], [75.896448, 22.8821349], [75.8961777, 22.8823019], [75.8959822, 22.8824625], [75.8957546, 22.8827049], [75.8955484, 22.8830456], [75.8954488, 22.8833273], [75.8955199, 22.8837336], [75.895623, 22.8842086], [75.8958506, 22.884772], [75.8960924, 22.8855352], [75.89632, 22.8861937], [75.8962489, 22.8864853], [75.8960782, 22.8870128], [75.8959893, 22.88717], [75.8956941, 22.8875632], [75.895335, 22.8880283], [75.8951217, 22.8884018], [75.8951252, 22.888749], [75.8951465, 22.8890439], [75.895207, 22.8893256], [75.8953741, 22.8898268], [75.895495, 22.8901183], [75.8957226, 22.8905508], [75.8961244, 22.890898], [75.8964338, 22.8910814], [75.8969529, 22.8911732], [75.8979272, 22.891147], [75.8988482, 22.8911764], [75.8993034, 22.8911306], [75.8997976, 22.8910487], [75.9001248, 22.891147], [75.900427, 22.8913468], [75.9006475, 22.8915499], [75.9007684, 22.8916842], [75.9010066, 22.8919823], [75.9010671, 22.8921887], [75.9010137, 22.8923459], [75.9008893, 22.8925326], [75.9007293, 22.8927325], [75.900619, 22.8929061], [75.9003061, 22.8934007], [75.9000999, 22.8936431], [75.8997798, 22.8939281], [75.8996021, 22.8940133], [75.8992785, 22.894164], [75.8987984, 22.8942852], [75.8985282, 22.8942983], [75.8983255, 22.8943114], [75.8980873, 22.8944031], [75.8978632, 22.89458], [75.8976712, 22.8947274], [75.8974294, 22.8948715], [75.8973298, 22.895091], [75.896992, 22.8956282], [75.8967858, 22.8960573], [75.8966045, 22.8963391], [75.8964018, 22.8964668], [75.8961351, 22.8966601], [75.8958364, 22.8968501], [75.8956728, 22.8970007], [75.8955341, 22.8972399], [75.8954417, 22.8975969], [75.8955021, 22.897895], [75.8955697, 22.8985043], [75.8956408, 22.8988843], [75.8955661, 22.8996311], [75.8954239, 22.9000635], [75.8951003, 22.9003714], [75.8945812, 22.9006891], [75.8943287, 22.9008955], [75.8940407, 22.9010298], [75.8936602, 22.9012099], [75.8931161, 22.9013541], [75.8923516, 22.9015866], [75.8920743, 22.901734], [75.8919249, 22.9018421], [75.8918503, 22.9019044], [75.8917045, 22.9020976], [75.8916262, 22.9022385], [75.8915764, 22.9024153], [75.8915587, 22.9028674], [75.8914627, 22.9033653], [75.8913098, 22.9035585], [75.8909506, 22.9037485], [75.8905275, 22.9039155], [75.8895633, 22.9044598], [75.8890122, 22.9048889], [75.8887953, 22.9050167], [75.8886246, 22.9051215], [75.8884539, 22.9051968], [75.8882761, 22.9052918], [75.8881339, 22.9053803], [75.8879525, 22.9055768], [75.8876894, 22.9060386], [75.8876183, 22.906209], [75.8875543, 22.9063236], [75.8875329, 22.9064972], [75.8875649, 22.9066577], [75.8876503, 22.9067658], [75.8878067, 22.9068411], [75.8880556, 22.9069034], [75.8883117, 22.9069656], [75.888525, 22.9070507], [75.8886779, 22.9071556], [75.8891153, 22.9074078], [75.8894566, 22.9076043], [75.8897091, 22.9077189], [75.8899936, 22.9077812], [75.8902923, 22.9077975], [75.890687, 22.9077124], [75.8908754, 22.9076731], [75.8911635, 22.9076567], [75.8916222, 22.9076174], [75.8919529, 22.9076239], [75.8922089, 22.9076502], [75.8924436, 22.9077189], [75.8926285, 22.9078041], [75.8928667, 22.9078827], [75.893041, 22.9079384], [75.8932579, 22.9081087], [75.893521, 22.9084002], [75.8937913, 22.9087802], [75.8940402, 22.9093763], [75.8940366, 22.9096809], [75.8939228, 22.9098479], [75.8937272, 22.9099626], [75.8930907, 22.9104048], [75.8926889, 22.9109059], [75.8922693, 22.9112138], [75.8916933, 22.9114791], [75.8913306, 22.9120948], [75.891231, 22.9124944], [75.8911564, 22.9127073], [75.8910817, 22.9128514], [75.8909643, 22.9130611], [75.8907794, 22.9131888], [75.8905874, 22.9132052], [75.8904416, 22.9131626], [75.8901963, 22.913025], [75.8895847, 22.9127892], [75.8893286, 22.9126877], [75.8889268, 22.9126549], [75.8885143, 22.9126778], [75.8878849, 22.912953], [75.8874049, 22.9133264], [75.887252, 22.913572], [75.8871596, 22.9137456], [75.887124, 22.9138799], [75.8872129, 22.9141583], [75.8874334, 22.9146135], [75.8875934, 22.9149312], [75.8877036, 22.9151278], [75.8877961, 22.915357], [75.8881836, 22.9157435], [75.8884183, 22.915868], [75.888813, 22.9159597], [75.8891437, 22.916094], [75.8896273, 22.916356], [75.8901465, 22.9166966], [75.8903598, 22.9169455], [75.8904274, 22.9170994], [75.8905092, 22.9172992], [75.8904558, 22.9174892], [75.8902709, 22.9176038], [75.8899971, 22.91763], [75.8895633, 22.9176955], [75.8892113, 22.9178069], [75.8887953, 22.9179379], [75.8883721, 22.9181442], [75.8881872, 22.91838], [75.8881374, 22.918606], [75.8880983, 22.9188091], [75.8881516, 22.9190711], [75.8882868, 22.9192905], [75.8884397, 22.9194183], [75.8886957, 22.9196082], [75.8889019, 22.9198473], [75.8890406, 22.9201421], [75.8891011, 22.9203812], [75.8890797, 22.9206825], [75.8890193, 22.9209379], [75.8889624, 22.9211181], [75.8886637, 22.9216224], [75.888493, 22.9219467], [75.8883188, 22.9221399], [75.8879703, 22.9224117], [75.8876503, 22.9225886], [75.887188, 22.922713], [75.8866653, 22.9228604], [75.8860217, 22.9231093], [75.8856163, 22.9233287], [75.8854136, 22.9235089], [75.8852252, 22.9237971], [75.8852572, 22.9241246], [75.8852749, 22.9250383], [75.8852536, 22.9259782], [75.8852074, 22.9267544], [75.8851007, 22.9270622], [75.8848767, 22.9273308], [75.8846527, 22.9275142], [75.8842615, 22.9276092], [75.8840233, 22.9275437], [75.8835575, 22.9273242], [75.8828214, 22.9272293], [75.8818257, 22.9271801], [75.881271, 22.9270655], [75.8803998, 22.9270164], [75.8799305, 22.9271769], [75.8793392, 22.9274444], [75.8790576, 22.9277593], [75.878957, 22.928065], [75.878947, 22.9285096], [75.878957, 22.9290654], [75.8789771, 22.9295007], [75.8790174, 22.9300195], [75.878957, 22.930742], [75.8788665, 22.9312977], [75.8788162, 22.9316775], [75.8788263, 22.9320943], [75.8788967, 22.9324926], [75.8790375, 22.9328909], [75.8791883, 22.9333355], [75.8792688, 22.9337431], [75.8791481, 22.934095], [75.8787659, 22.9346045], [75.8778809, 22.9354751], [75.8773176, 22.9359753], [75.877036, 22.9362717], [75.8768449, 22.936531], [75.8767947, 22.9368645], [75.8768248, 22.937272], [75.8769355, 22.9376425], [75.8769958, 22.9380315], [75.8770863, 22.938541], [75.8769355, 22.9394672], [75.8768449, 22.9400229], [75.8766941, 22.940449], [75.8764326, 22.9407731], [75.8759699, 22.9409491], [75.8753263, 22.9410047], [75.8748636, 22.9409676], [75.8741193, 22.9406064], [75.8732343, 22.9401248], [75.8719369, 22.9390226], [75.8713636, 22.9386799], [75.8706193, 22.9386614], [75.8703075, 22.9387818], [75.8697644, 22.9390411], [75.8694024, 22.9393005], [75.8690805, 22.9398099], [75.8681653, 22.9415697], [75.8676725, 22.9425885], [75.867421, 22.9434684], [75.8675116, 22.9439407], [75.8676725, 22.944441], [75.8678937, 22.9448855], [75.8681452, 22.9453764], [75.8683564, 22.9459784], [75.8684771, 22.9465341], [75.8686179, 22.9471083], [75.8685475, 22.9476826], [75.867934, 22.9482753], [75.8673406, 22.9485624], [75.8664957, 22.9490162], [75.8656207, 22.949683], [75.8648966, 22.9507203], [75.8642227, 22.9520169], [75.8639512, 22.9527115], [75.8636495, 22.953332], [75.8631566, 22.9534709], [75.8627443, 22.9534339], [75.8618793, 22.9531746], [75.8613966, 22.9532301], [75.8607227, 22.9533598], [75.8603003, 22.9534339], [75.8597471, 22.9536839], [75.8588923, 22.9544341], [75.8582385, 22.9551842], [75.857625, 22.9557121], [75.856569, 22.9566938], [75.8547486, 22.9593609], [75.8543764, 22.9598147], [75.8537529, 22.960324], [75.8521839, 22.9613612], [75.851148, 22.9617965], [75.8505244, 22.9618798], [75.8498606, 22.9617965], [75.8493276, 22.9617687], [75.848885, 22.9617687], [75.8485229, 22.9617779], [75.8483419, 22.9618983], [75.848, 22.9622688], [75.8477485, 22.9625651], [75.8473965, 22.9628151], [75.8469037, 22.9630374], [75.8464209, 22.9630466], [75.8457873, 22.9630466], [75.8449123, 22.963167], [75.8441379, 22.9632226], [75.8436149, 22.9634171], [75.8433534, 22.9635838], [75.842931, 22.9637782], [75.8427902, 22.9642968], [75.8425287, 22.9650191], [75.8418749, 22.9671212], [75.8411106, 22.9684639], [75.8403965, 22.9693622], [75.8396522, 22.9698622], [75.8389784, 22.9703067], [75.8378821, 22.9711216], [75.8372585, 22.971492], [75.8368462, 22.9715383], [75.8366852, 22.9714549], [75.8359611, 22.9709456], [75.8354985, 22.9705104], [75.8347542, 22.970103], [75.8331048, 22.9692974], [75.8322599, 22.9689455], [75.8316364, 22.9689177], [75.8310832, 22.9690751], [75.8306407, 22.96989], [75.8299065, 22.9710475], [75.8290516, 22.9721772], [75.8290616, 22.9735569], [75.8292728, 22.9740662], [75.8295645, 22.9745014], [75.8299165, 22.9749366], [75.8303188, 22.975381], [75.8304496, 22.9761218], [75.8304194, 22.9770848], [75.8302384, 22.9777607], [75.8297657, 22.9782978], [75.8286392, 22.9787237], [75.82703, 22.9793719], [75.8251392, 22.9799737], [75.8243547, 22.9806219], [75.8237312, 22.9814737], [75.8235199, 22.9820849], [75.8232987, 22.9829367], [75.8233993, 22.9840293], [75.8232886, 22.9848904], [75.8231378, 22.9854922], [75.8225041, 22.9873347], [75.821951, 22.9880199], [75.8211263, 22.9889273], [75.8199495, 22.9898716], [75.8189136, 22.9908345], [75.8180487, 22.9913993], [75.8173949, 22.9916771], [75.8163389, 22.991853], [75.815665, 22.9920196], [75.8145285, 22.9925196], [75.814086, 22.993177], [75.8137038, 22.9938343], [75.813392, 22.9944639], [75.813392, 22.9950286], [75.8135831, 22.9955656], [75.8139452, 22.995973], [75.8145386, 22.9966118], [75.8148805, 22.997121], [75.8157254, 22.9981024], [75.8158159, 22.9987597], [75.8156248, 22.99913], [75.8152426, 22.9995003], [75.8151521, 22.9998707], [75.8152124, 23.0004354], [75.815484, 23.0010464], [75.8157958, 23.0013519], [75.8163892, 23.0019722], [75.8169624, 23.0024999], [75.8177771, 23.0031017], [75.8180889, 23.0037497], [75.8182397, 23.0041385], [75.8182196, 23.0046662], [75.8180386, 23.0053604], [75.8177872, 23.0057493], [75.8174955, 23.0063603], [75.8171334, 23.0065176], [75.8166607, 23.0065825], [75.8160472, 23.0065269], [75.8157354, 23.0062955], [75.8151722, 23.0057956], [75.8146492, 23.0055734], [75.8134222, 23.0052124], [75.812688, 23.0053419], [75.8122153, 23.0055271], [75.8119035, 23.005777], [75.8117225, 23.0060455], [75.8115615, 23.0065454], [75.8121851, 23.0073693], [75.8124667, 23.0085358], [75.8125774, 23.0090357], [75.8131205, 23.00973], [75.8136435, 23.0103224], [75.8142167, 23.010739], [75.8147297, 23.0111278], [75.8160673, 23.0117203], [75.8164897, 23.0120535], [75.8166909, 23.0124701], [75.8166305, 23.0128774], [75.8160774, 23.0133773], [75.8155745, 23.0141457], [75.8152527, 23.0146826], [75.8150515, 23.0154416], [75.8150917, 23.0164321], [75.8153231, 23.0172281], [75.8154438, 23.0177557], [75.815494, 23.0183574], [75.815494, 23.0192091], [75.8154739, 23.020144], [75.8152527, 23.0207271], [75.814609, 23.0216435], [75.8139552, 23.0224581], [75.8134222, 23.0232912], [75.8131104, 23.0241057], [75.8128891, 23.0250777], [75.8126679, 23.0261884], [75.8130299, 23.0279008], [75.8134121, 23.0285302], [75.8136736, 23.0288819], [75.8140055, 23.029354], [75.8141463, 23.0297798], [75.8140055, 23.030548], [75.8136435, 23.0326121], [75.8136636, 23.0346391], [75.8141664, 23.0358793], [75.8150012, 23.0372214], [75.8157857, 23.0386282], [75.8167613, 23.039711], [75.8174452, 23.0399887], [75.8178374, 23.0400165], [75.8185214, 23.040109], [75.8187124, 23.0402571], [75.8189438, 23.0409698], [75.8189136, 23.0414973], [75.8188331, 23.0419693], [75.8190142, 23.042682], [75.8193964, 23.0432187], [75.8199194, 23.0435334], [75.8204021, 23.0435519], [75.8208245, 23.0434038], [75.8212671, 23.0432373], [75.8216895, 23.0432465], [75.8220013, 23.0434316], [75.8230975, 23.0442646], [75.8236306, 23.0447273], [75.8239323, 23.0451253], [75.8239725, 23.0455417], [75.8238317, 23.046134], [75.8232484, 23.0466986], [75.8225343, 23.0473742], [75.8215286, 23.0489567], [75.8212268, 23.049512], [75.8205932, 23.0500673], [75.8202211, 23.0501506], [75.8194869, 23.0501506], [75.8185817, 23.0502524], [75.8176464, 23.0503819], [75.817244, 23.0505393], [75.8169122, 23.0509095], [75.8166305, 23.0512426], [75.8164093, 23.0517701], [75.8163892, 23.0521866], [75.8165099, 23.0527603], [75.816711, 23.0532971], [75.8170731, 23.0535932], [75.8175558, 23.0536765], [75.8181794, 23.0535285], [75.818813, 23.0535007], [75.8192857, 23.0535655], [75.8196579, 23.0537135], [75.8200199, 23.0539079], [75.8202915, 23.0542595], [75.8206435, 23.0548426], [75.8209653, 23.0559068], [75.8206837, 23.0571376], [75.8203217, 23.0575448], [75.8199696, 23.0578964], [75.8188935, 23.0579242], [75.8179078, 23.0576003], [75.8161478, 23.0573504], [75.8150415, 23.0573967], [75.8143676, 23.0576188], [75.8138144, 23.0580167], [75.8135429, 23.0584147], [75.8133317, 23.0589606], [75.8131506, 23.0596732], [75.8130199, 23.0603672], [75.8121147, 23.0614962], [75.8114006, 23.0619774], [75.8108475, 23.0624308], [75.8106061, 23.0627917], [75.8105055, 23.0632451], [75.8106161, 23.0637448], [75.8108475, 23.0642538], [75.8113001, 23.0648553], [75.8123762, 23.0659935], [75.8135429, 23.068131], [75.8141262, 23.0696023], [75.8146693, 23.0708514], [75.8147397, 23.072628], [75.8147397, 23.0739049], [75.8150616, 23.0757], [75.8152225, 23.0776432], [75.8151018, 23.0816033], [75.8141655, 23.0846829], [75.8138334, 23.0860383], [75.8136674, 23.0871646], [75.8135222, 23.0882909], [75.8134599, 23.0889399], [75.8134599, 23.0900853], [75.8133147, 23.0908107], [75.8129204, 23.091536], [75.8127544, 23.0918987], [75.8127544, 23.0929104], [75.8127129, 23.0940939], [75.8123186, 23.0949147], [75.8117583, 23.0956592], [75.8110527, 23.0959073], [75.8102642, 23.0960219], [75.8094756, 23.0960219], [75.808521, 23.0958883], [75.807857, 23.0956783], [75.8066534, 23.095392]]}, "properties": {"name": "Kanh River", "tunnel": "no", "waterway": "river", "source_id": "way/191817154", "edited_at": "2025-06-07T01:53:29Z"}}, {"type": "Feature", "geometry": {"type": "LineString", "coordinates": [[75.8586887, 22.7216825], [75.8584988, 22.7217905], [75.8583492, 22.7218191]]}, "properties": {"waterway": "weir", "source_id": "way/370134395", "edited_at": "2015-09-11T05:59:21Z"}}]}