{"type": "FeatureCollection", "features": [{"type": "Feature", "geometry": {"type": "Point", "coordinates": [75.8593867, 22.7190137]}, "properties": {"amenity": "restaurant", "name": "hazi samosa center", "source_id": "node/3278133922", "edited_at": "2015-01-09T10:07:33Z"}}, {"type": "Feature", "geometry": {"type": "Point", "coordinates": [75.8641447, 22.7160939]}, "properties": {"amenity": "restaurant", "name": "Saifee Restaurant", "source_id": "node/3360064186", "edited_at": "2015-02-19T19:44:18Z"}}, {"type": "Feature", "geometry": {"type": "Point", "coordinates": [75.8637897, 22.7167406]}, "properties": {"amenity": "doctors", "name": "Qurban Husain", "source_id": "node/3360065915", "edited_at": "2015-10-14T08:56:51Z"}}, {"type": "Feature", "geometry": {"type": "Point", "coordinates": [75.8640405, 22.7163833]}, "properties": {"amenity": "restaurant", "name": "Saifee Hotel", "source_id": "node/3360068348", "edited_at": "2025-06-19T05:50:43Z"}}, {"type": "Feature", "geometry": {"type": "Point", "coordinates": [75.8546456, 22.722505]}, "properties": {"amenity": "atm", "source_id": "node/4727515314", "edited_at": "2019-10-30T11:45:26Z"}}, {"type": "Feature", "geometry": {"type": "Point", "coordinates": [75.8641013, 22.7118198]}, "properties": {"amenity": "clinic", "name": "New Kashyap Clinic", "source_id": "node/6213757386", "edited_at": "2021-12-10T05:46:55Z"}}, {"type": "Feature", "geometry": {"type": "Point", "coordinates": [75.8642455, 22.7175008]}, "properties": {"amenity": "pharmacy", "name": "Cash Chemist", "source_id": "node/6213876787", "edited_at": "2019-03-05T12:39:24Z"}}, {"type": "Feature", "geometry": {"type": "Point", "coordinates": [75.8635783, 22.7173322]}, "properties": {"amenity": "pharmacy", "name": "Lucky Chemist", "source_id": "node/6213878060", "edited_at": "2019-03-05T12:40:24Z"}}, {"type": "Feature", "geometry": {"type": "Point", "coordinates": [75.8642197, 22.7174374]}, "properties": {"amenity": "pharmacy", "name": "Service Medical Stores", "source_id": "node/6213878469", "edited_at": "2019-01-16T16:51:20Z"}}, {"type": "Feature", "geometry": {"type": "Point", "coordinates": [75.8618134, 22.7210804]}, "properties": {"amenity": "clinic", "name": "C.S. Homeo Pharmacy", "source_id": "node/6213898341", "edited_at": "2019-10-30T20:23:29Z"}}, {"type": "Feature", "geometry": {"type": "Point", "coordinates": [75.8621376, 22.723402]}, "properties": {"amenity": "clinic", "name": "Maruti Clinic", "source_id": "node/6213904151", "edited_at": "2021-12-20T07:34:46Z"}}, {"type": "Feature", "geometry": {"type": "Point", "coordinates": [75.859667, 22.7123381]}, "properties": {"amenity": "clinic", "name": "Solanki Clinic", "source_id": "node/6213914988", "edited_at": "2021-12-10T05:46:55Z"}}, {"type": "Feature", "geometry": {"type": "Point", "coordinates": [75.8581227, 22.7162538]}, "properties": {"amenity": "pharmacy", "name": "Annapoorna Homeo Stores", "source_id": "node/6213918097", "edited_at": "2019-06-04T18:20:51Z"}}, {"type": "Feature", "geometry": {"type": "Point", "coordinates": [75.8580991, 22.7162622]}, "properties": {"amenity": "pharmacy", "name": "Rai Medical Stores", "source_id": "node/6213922084", "edited_at": "2019-06-04T18:20:51Z"}}, {"type": "Feature", "geometry": {"type": "Point", "coordinates": [75.8580663, 22.7163355]}, "properties": {"amenity": "clinic", "name": "Oaj Ayurvedic and Infertility Center", "source_id": "node/6213929363", "edited_at": "2024-10-01T12:48:40Z"}}, {"type": "Feature", "geometry": {"type": "Point", "coordinates": [75.8569563, 22.7165424]}, "properties": {"amenity": "clinic", "name": "Khushaal Dawakhana", "source_id": "node/6213932793", "edited_at": "2022-01-16T16:53:05Z"}}, {"type": "Feature", "geometry": {"type": "Point", "coordinates": [75.8566602, 22.7165553]}, "properties": {"amenity": "clinic", "name": "Dr.N.P.Chabra", "source_id": "node/6213936461", "edited_at": "2022-01-16T16:53:05Z"}}, {"type": "Feature", "geometry": {"type": "Point", "coordinates": [75.8557072, 22.71593]}, "properties": {"amenity": "clinic", "name": "Usmaan Bhai", "source_id": "node/6213941250", "edited_at": "2022-01-16T16:53:05Z"}}, {"type": "Feature", "geometry": {"type": "Point", "coordinates": [75.8557001, 22.7159235]}, "properties": {"amenity": "hospital", "name": "Multani Ayurvedic Clinic", "source_id": "node/6213953964", "edited_at": "2019-06-04T18:20:51Z"}}, {"type": "Feature", "geometry": {"type": "Point", "coordinates": [75.854975, 22.7162654]}, "properties": {"amenity": "hospital", "name": "Tanish Hospital", "source_id": "node/6213964372", "edited_at": "2019-06-04T18:20:51Z"}}, {"type": "Feature", "geometry": {"type": "Point", "coordinates": [75.8524135, 22.7183795]}, "properties": {"amenity": "clinic", "name": "Yash Deep Clinic", "source_id": "node/6213981134", "edited_at": "2019-06-04T18:20:51Z"}}, {"type": "Feature", "geometry": {"type": "Point", "coordinates": [75.8542932, 22.7163822]}, "properties": {"amenity": "clinic", "name": "हेल्थ केयर पोली क्लिनिक", "name:en": "Health Care Poly clinic", "source_id": "node/6213995187", "edited_at": "2026-06-02T12:22:52Z"}}, {"type": "Feature", "geometry": {"type": "Point", "coordinates": [75.853944, 22.716325]}, "properties": {"amenity": "doctors", "name": "डॉ.पियूष गाँधी", "name:en": "Dr.Piyush Gandhi", "source_id": "node/6214009893", "edited_at": "2026-06-02T12:22:52Z"}}, {"type": "Feature", "geometry": {"type": "Point", "coordinates": [75.8563593, 22.7191479]}, "properties": {"amenity": "hospital", "name": "Holi Homeo Clinic", "source_id": "node/6214019776", "edited_at": "2019-06-04T18:20:51Z"}}, {"type": "Feature", "geometry": {"type": "Point", "coordinates": [75.8552581, 22.7188884]}, "properties": {"amenity": "clinic", "name": "Dr. L.L.Jain", "source_id": "node/6214045108", "edited_at": "2019-02-04T13:29:23Z"}}, {"type": "Feature", "geometry": {"type": "Point", "coordinates": [75.8549765, 22.7189305]}, "properties": {"amenity": "clinic", "name": "Rajas Eye And Retina Research Center", "source_id": "node/6214071457", "edited_at": "2019-02-07T13:38:47Z"}}, {"type": "Feature", "geometry": {"type": "Point", "coordinates": [75.8538999, 22.718826]}, "properties": {"amenity": "clinic", "name": "Dr.Rawal's Clinic", "source_id": "node/6214081704", "edited_at": "2019-02-07T10:53:37Z"}}, {"type": "Feature", "geometry": {"type": "Point", "coordinates": [75.8529799, 22.7190267]}, "properties": {"amenity": "dentist", "name": "डॉ.अरविन्द गोला", "name:en": "Dr.Arvind Gola", "source_id": "node/6214088074", "edited_at": "2026-06-02T12:22:52Z"}}, {"type": "Feature", "geometry": {"type": "Point", "coordinates": [75.8531524, 22.7189904]}, "properties": {"amenity": "hospital", "name": "Saurabh Hospital", "source_id": "node/6214095680", "edited_at": "2019-06-04T18:20:51Z"}}, {"type": "Feature", "geometry": {"type": "Point", "coordinates": [75.853058, 22.7190047]}, "properties": {"amenity": "clinic", "name": "Dr.Virendra Koria", "source_id": "node/6214096152", "edited_at": "2019-06-04T18:20:51Z"}}, {"type": "Feature", "geometry": {"type": "Point", "coordinates": [75.8529735, 22.7188526]}, "properties": {"amenity": "dentist", "name": "Deep Chand Gola", "source_id": "node/6214107682", "edited_at": "2019-06-04T18:20:51Z"}}, {"type": "Feature", "geometry": {"type": "Point", "coordinates": [75.8529672, 22.718868]}, "properties": {"amenity": "dentist", "name": "Dr.Arvin Krishnan Gola", "source_id": "node/6214120395", "edited_at": "2019-06-04T18:20:51Z"}}, {"type": "Feature", "geometry": {"type": "Point", "coordinates": [75.8515373, 22.7192048]}, "properties": {"amenity": "doctors", "name": "डॉ.के.बी.रॉय क्लिनिक", "name:en": "Dr.K.B. Rai Clinic", "source_id": "node/6214187378", "edited_at": "2026-06-02T12:22:52Z"}}, {"type": "Feature", "geometry": {"type": "Point", "coordinates": [75.861454, 22.7203977]}, "properties": {"amenity": "pharmacy", "name": "K N Khanna Medical Stores", "source_id": "node/6215263785", "edited_at": "2019-06-04T18:20:51Z"}}, {"type": "Feature", "geometry": {"type": "Point", "coordinates": [75.8630646, 22.7248868]}, "properties": {"amenity": "dentist", "name": "Shree Dental Clinic", "source_id": "node/6215268696", "edited_at": "2019-10-30T20:23:29Z"}}, {"type": "Feature", "geometry": {"type": "Point", "coordinates": [75.8625282, 22.7248076]}, "properties": {"amenity": "pharmacy", "name": "Aarogya Medical Stores", "source_id": "node/6215328015", "edited_at": "2019-10-30T20:23:29Z"}}, {"type": "Feature", "geometry": {"type": "Point", "coordinates": [75.8602067, 22.7238941]}, "properties": {"amenity": "pharmacy", "name": "Annapurna Medical And General Stores", "source_id": "node/6215419956", "edited_at": "2019-10-30T20:13:27Z"}}, {"type": "Feature", "geometry": {"type": "Point", "coordinates": [75.8599787, 22.7238025]}, "properties": {"amenity": "pharmacy", "name": "Hari Medical Stores", "source_id": "node/6215425660", "edited_at": "2019-10-30T20:13:27Z"}}, {"type": "Feature", "geometry": {"type": "Point", "coordinates": [75.8576747, 22.723142]}, "properties": {"amenity": "dentist", "name": "Dental Care World", "source_id": "node/6215428898", "edited_at": "2019-10-30T20:13:27Z"}}, {"type": "Feature", "geometry": {"type": "Point", "coordinates": [75.8576345, 22.7230232]}, "properties": {"amenity": "pharmacy", "name": "Saadgi Medical And General Stores", "source_id": "node/6215789808", "edited_at": "2019-10-30T20:13:27Z"}}, {"type": "Feature", "geometry": {"type": "Point", "coordinates": [75.8571168, 22.7246462]}, "properties": {"amenity": "clinic", "name": "Shivam Polyclinic And Daycare Centre", "source_id": "node/6215805261", "edited_at": "2021-12-20T07:34:46Z"}}, {"type": "Feature", "geometry": {"type": "Point", "coordinates": [75.8541732, 22.7229082]}, "properties": {"amenity": "clinic", "name": "Dr OP Parikh", "source_id": "node/6215813285", "edited_at": "2021-12-20T07:34:46Z"}}, {"type": "Feature", "geometry": {"type": "Point", "coordinates": [75.8552956, 22.7201502]}, "properties": {"amenity": "pharmacy", "name": "Roop Shree Medical Stores", "source_id": "node/6215818248", "edited_at": "2019-06-04T18:20:51Z"}}, {"type": "Feature", "geometry": {"type": "Point", "coordinates": [75.8549778, 22.7206617]}, "properties": {"amenity": "dentist", "name": "S V Dental Clinic", "source_id": "node/6215831159", "edited_at": "2025-04-23T21:59:10Z"}}, {"type": "Feature", "geometry": {"type": "Point", "coordinates": [75.8543663, 22.7210279]}, "properties": {"amenity": "clinic", "name": "Dr Suman Bndi", "source_id": "node/6215844861", "edited_at": "2019-10-30T11:45:26Z"}}, {"type": "Feature", "geometry": {"type": "Point", "coordinates": [75.8524485, 22.7224208]}, "properties": {"amenity": "pharmacy", "name": "Shama Medical Store", "source_id": "node/6215851864", "edited_at": "2019-10-30T11:45:26Z"}}, {"type": "Feature", "geometry": {"type": "Point", "coordinates": [75.8547631, 22.7128369]}, "properties": {"amenity": "clinic", "name": "Dr.Meenakshi Arya", "source_id": "node/6215877658", "edited_at": "2019-10-30T08:08:24Z"}}, {"type": "Feature", "geometry": {"type": "Point", "coordinates": [75.8551746, 22.7119941]}, "properties": {"amenity": "doctors", "name": "Dr.Shamussdin Ahmed", "source_id": "node/6215882260", "edited_at": "2022-01-16T16:53:05Z"}}, {"type": "Feature", "geometry": {"type": "Point", "coordinates": [75.8553229, 22.7163249]}, "properties": {"amenity": "pharmacy", "name": "Lakshmi Medical Hall", "source_id": "node/6215899083", "edited_at": "2026-06-05T13:11:55Z"}}, {"type": "Feature", "geometry": {"type": "Point", "coordinates": [75.8518478, 22.7223218]}, "properties": {"amenity": "clinic", "name": "Chand Tara Dawakhana", "source_id": "node/6215902471", "edited_at": "2019-10-30T11:45:26Z"}}, {"type": "Feature", "geometry": {"type": "Point", "coordinates": [75.8518182, 22.7224084]}, "properties": {"amenity": "pharmacy", "name": "Aman Medical", "source_id": "node/6215910453", "edited_at": "2019-10-30T11:45:26Z"}}, {"type": "Feature", "geometry": {"type": "Point", "coordinates": [75.8556068, 22.7194674]}, "properties": {"amenity": "pharmacy", "name": "Vyas Ayurvedic Stores", "source_id": "node/6215930792", "edited_at": "2019-06-04T18:20:51Z"}}, {"type": "Feature", "geometry": {"type": "Point", "coordinates": [75.8566421, 22.7134736]}, "properties": {"amenity": "clinic", "name": "Dr.Rao Clinic", "source_id": "node/6215931088", "edited_at": "2019-10-30T16:43:08Z"}}, {"type": "Feature", "geometry": {"type": "Point", "coordinates": [75.8566046, 22.7182798]}, "properties": {"amenity": "pharmacy", "name": "Shri Indore Ayurvedic Stores", "source_id": "node/6215937320", "edited_at": "2019-06-04T18:20:51Z"}}, {"type": "Feature", "geometry": {"type": "Point", "coordinates": [75.8559642, 22.7139791]}, "properties": {"amenity": "dentist", "name": "Dental Clinic", "source_id": "node/6215940306", "edited_at": "2019-10-30T16:43:08Z"}}, {"type": "Feature", "geometry": {"type": "Point", "coordinates": [75.8565643, 22.7183887]}, "properties": {"amenity": "clinic", "name": "Yashlok Clinic", "source_id": "node/6215943512", "edited_at": "2019-08-17T03:18:40Z"}}, {"type": "Feature", "geometry": {"type": "Point", "coordinates": [75.8564007, 22.7183986]}, "properties": {"amenity": "pharmacy", "name": "Five Percent Chemist", "source_id": "node/6215951483", "edited_at": "2019-06-04T18:20:51Z"}}, {"type": "Feature", "geometry": {"type": "Point", "coordinates": [75.8562291, 22.7183689]}, "properties": {"amenity": "clinic", "name": "Dr Vijay Sharma", "source_id": "node/6215957647", "edited_at": "2022-01-06T08:57:14Z"}}, {"type": "Feature", "geometry": {"type": "Point", "coordinates": [75.856111, 22.7182996]}, "properties": {"amenity": "clinic", "name": "Motiwale Clinic", "source_id": "node/6215967093", "edited_at": "2022-01-16T16:53:05Z"}}, {"type": "Feature", "geometry": {"type": "Point", "coordinates": [75.855757, 22.7177553]}, "properties": {"amenity": "clinic", "name": "Abhinav Nursing Home", "source_id": "node/6216198631", "edited_at": "2019-06-04T18:20:51Z"}}, {"type": "Feature", "geometry": {"type": "Point", "coordinates": [75.8522808, 22.718933]}, "properties": {"amenity": "dentist", "name": "Verma Dental Clinic", "source_id": "node/6216211422", "edited_at": "2019-06-04T18:20:51Z"}}, {"type": "Feature", "geometry": {"type": "Point", "coordinates": [75.8513904, 22.7191606]}, "properties": {"amenity": "clinic", "name": "Dr K B Roy", "source_id": "node/6216221543", "edited_at": "2019-06-04T18:20:51Z"}}, {"type": "Feature", "geometry": {"type": "Point", "coordinates": [75.8510363, 22.7192794]}, "properties": {"amenity": "doctors", "name": "डॉ एच के मोहता", "name:en": "Dr H K Mohta", "source_id": "node/6216225626", "edited_at": "2022-01-06T08:57:14Z"}}, {"type": "Feature", "geometry": {"type": "Point", "coordinates": [75.8507884, 22.7192561]}, "properties": {"amenity": "clinic", "name": "Dr Govind Jhanwar", "source_id": "node/6216240762", "edited_at": "2025-06-27T02:59:42Z"}}, {"type": "Feature", "geometry": {"type": "Point", "coordinates": [75.852934, 22.7247043]}, "properties": {"amenity": "clinic", "name": "Joshi Clinic", "source_id": "node/6216289773", "edited_at": "2019-10-30T11:45:26Z"}}, {"type": "Feature", "geometry": {"type": "Point", "coordinates": [75.8529447, 22.7248082]}, "properties": {"amenity": "pharmacy", "name": "Ambika Medical Stores", "source_id": "node/6216291190", "edited_at": "2019-10-30T11:45:26Z"}}, {"type": "Feature", "geometry": {"type": "Point", "coordinates": [75.8553059, 22.7162559]}, "properties": {"amenity": "pharmacy", "name": "Sonia Medical Hall", "source_id": "node/6216308488", "edited_at": "2026-06-05T13:11:55Z"}}, {"type": "Feature", "geometry": {"type": "Point", "coordinates": [75.8566522, 22.7134333]}, "properties": {"amenity": "dentist", "name": "Dental Clinic", "source_id": "node/6216319992", "edited_at": "2019-10-30T16:43:08Z"}}, {"type": "Feature", "geometry": {"type": "Point", "coordinates": [75.8566538, 22.7134385]}, "properties": {"amenity": "pharmacy", "name": "Gandhi Chemist", "source_id": "node/6216322015", "edited_at": "2019-10-30T16:43:08Z"}}, {"type": "Feature", "geometry": {"type": "Point", "coordinates": [75.8549802, 22.7119586]}, "properties": {"amenity": "clinic", "name": "Dr Ahmad Clinic", "source_id": "node/6216328991", "edited_at": "2021-12-10T05:46:55Z"}}, {"type": "Feature", "geometry": {"type": "Point", "coordinates": [75.8556417, 22.7170848]}, "properties": {"amenity": "dentist", "name": "Dr Ashok L Batheja", "source_id": "node/6216340157", "edited_at": "2019-06-04T18:20:51Z"}}, {"type": "Feature", "geometry": {"type": "Point", "coordinates": [75.8557248, 22.7173619]}, "properties": {"amenity": "clinic", "name": "Dr Neeta Meratia Clinic", "source_id": "node/6216341017", "edited_at": "2022-01-06T08:57:14Z"}}, {"type": "Feature", "geometry": {"type": "Point", "coordinates": [75.8608372, 22.7212502]}, "properties": {"amenity": "pharmacy", "name": "Davaiyan", "source_id": "node/6216851048", "edited_at": "2019-10-30T20:23:29Z"}}, {"type": "Feature", "geometry": {"type": "Point", "coordinates": [75.8607889, 22.720993]}, "properties": {"amenity": "clinic", "name": "Dr Prakash K Tanwani", "source_id": "node/6216851591", "edited_at": "2021-12-20T07:34:46Z"}}, {"type": "Feature", "geometry": {"type": "Point", "coordinates": [75.8541206, 22.7189518]}, "properties": {"amenity": "pharmacy", "name": "M P Medical Store", "source_id": "node/6216852791", "edited_at": "2019-06-04T18:20:51Z"}}, {"type": "Feature", "geometry": {"type": "Point", "coordinates": [75.8549701, 22.7191546]}, "properties": {"amenity": "pharmacy", "name": "Narendra Medical", "source_id": "node/6216853197", "edited_at": "2019-08-17T03:18:40Z"}}, {"type": "Feature", "geometry": {"type": "Point", "coordinates": [75.8532414, 22.7190559]}, "properties": {"amenity": "dentist", "name": "Verma dental clinic", "source_id": "node/6216859169", "edited_at": "2019-06-04T18:20:51Z"}}, {"type": "Feature", "geometry": {"type": "Point", "coordinates": [75.8548128, 22.7191705]}, "properties": {"amenity": "hospital", "name": "Indore Hospital", "source_id": "node/6216931123", "edited_at": "2019-06-04T18:20:51Z"}}, {"type": "Feature", "geometry": {"type": "Point", "coordinates": [75.8532867, 22.7189825]}, "properties": {"amenity": "pharmacy", "name": "Narmada Medical Store", "source_id": "node/6216937679", "edited_at": "2019-06-04T18:20:51Z"}}, {"type": "Feature", "geometry": {"type": "Point", "coordinates": [75.8517551, 22.7191903]}, "properties": {"amenity": "dentist", "name": "श्री राम डेंटल हॉल", "name:en": "Shri Ram Dental Hall", "source_id": "node/6216941747", "edited_at": "2026-06-02T12:22:52Z"}}, {"type": "Feature", "geometry": {"type": "Point", "coordinates": [75.8507462, 22.719248]}, "properties": {"amenity": "pharmacy", "name": "Govind Jhawar", "source_id": "node/6216941748", "edited_at": "2025-06-27T02:59:42Z"}}, {"type": "Feature", "geometry": {"type": "Point", "coordinates": [75.8518517, 22.7190418]}, "properties": {"amenity": "pharmacy", "name": "Mahajan Medical", "source_id": "node/6216948775", "edited_at": "2019-06-04T18:20:51Z"}}, {"type": "Feature", "geometry": {"type": "Point", "coordinates": [75.8639016, 22.7172369]}, "properties": {"amenity": "pharmacy", "name": "Malwa Traders", "source_id": "node/6216982260", "edited_at": "2019-03-05T15:09:17Z"}}, {"type": "Feature", "geometry": {"type": "Point", "coordinates": [75.8639362, 22.7112586]}, "properties": {"amenity": "pharmacy", "name": "Asha Medical", "source_id": "node/6216982261", "edited_at": "2019-03-05T15:11:08Z"}}, {"type": "Feature", "geometry": {"type": "Point", "coordinates": [75.8642866, 22.7122983]}, "properties": {"amenity": "pharmacy", "name": "Keshav Chemist", "source_id": "node/6216982262", "edited_at": "2019-03-05T15:17:06Z"}}, {"type": "Feature", "geometry": {"type": "Point", "coordinates": [75.8626092, 22.7129029]}, "properties": {"amenity": "pharmacy", "name": "Meet Medical", "source_id": "node/6216982263", "edited_at": "2019-10-30T16:37:53Z"}}, {"type": "Feature", "geometry": {"type": "Point", "coordinates": [75.8577074, 22.7145421]}, "properties": {"amenity": "clinic", "name": "Dr Suhas Bande", "source_id": "node/6216982264", "edited_at": "2019-10-30T16:43:08Z"}}, {"type": "Feature", "geometry": {"type": "Point", "coordinates": [75.8578948, 22.7158175]}, "properties": {"amenity": "pharmacy", "name": "Ruchi Chemist", "source_id": "node/6216982265", "edited_at": "2019-06-04T18:20:51Z"}}, {"type": "Feature", "geometry": {"type": "Point", "coordinates": [75.8578312, 22.7163916]}, "properties": {"amenity": "pharmacy", "name": "Saraswati Medico", "source_id": "node/6216982266", "edited_at": "2019-06-04T18:20:51Z"}}, {"type": "Feature", "geometry": {"type": "Point", "coordinates": [75.8577807, 22.7165502]}, "properties": {"amenity": "pharmacy", "name": "Bhagyashree Medicose", "source_id": "node/6216982267", "edited_at": "2019-06-04T18:20:51Z"}}, {"type": "Feature", "geometry": {"type": "Point", "coordinates": [75.8578159, 22.7166261]}, "properties": {"amenity": "pharmacy", "name": "Laxmi Medical", "source_id": "node/6216982269", "edited_at": "2019-06-04T18:20:51Z"}}, {"type": "Feature", "geometry": {"type": "Point", "coordinates": [75.8568977, 22.7166676]}, "properties": {"amenity": "pharmacy", "name": "Adi Sales", "source_id": "node/6216982270", "edited_at": "2019-06-04T18:20:51Z"}}, {"type": "Feature", "geometry": {"type": "Point", "coordinates": [75.8565657, 22.7165614]}, "properties": {"amenity": "dentist", "name": "Daat ka davakhana", "source_id": "node/6216982271", "edited_at": "2025-06-19T18:14:22Z"}}, {"type": "Feature", "geometry": {"type": "Point", "coordinates": [75.8541, 22.7161898]}, "properties": {"amenity": "pharmacy", "name": "Ajay Medical", "source_id": "node/6216982272", "edited_at": "2019-06-04T18:20:51Z"}}, {"type": "Feature", "geometry": {"type": "Point", "coordinates": [75.85412, 22.7161039]}, "properties": {"amenity": "pharmacy", "name": "Daimond Medicals", "source_id": "node/6216982273", "edited_at": "2019-06-04T18:20:51Z"}}, {"type": "Feature", "geometry": {"type": "Point", "coordinates": [75.8540846, 22.716052]}, "properties": {"amenity": "clinic", "name": "Dawani Clinic", "source_id": "node/6216982274", "edited_at": "2022-01-06T08:57:14Z"}}, {"type": "Feature", "geometry": {"type": "Point", "coordinates": [75.8546814, 22.7161261]}, "properties": {"amenity": "clinic", "name": "Dr R N Jaiswal", "source_id": "node/6217788279", "edited_at": "2022-01-06T08:57:14Z"}}, {"type": "Feature", "geometry": {"type": "Point", "coordinates": [75.8509344, 22.7157859]}, "properties": {"amenity": "pharmacy", "name": "Nafees Chemist", "source_id": "node/6217788280", "edited_at": "2019-06-04T18:20:51Z"}}, {"type": "Feature", "geometry": {"type": "Point", "coordinates": [75.8512294, 22.7157562]}, "properties": {"amenity": "pharmacy", "name": "Ali Medical", "source_id": "node/6217789685", "edited_at": "2019-06-04T18:20:51Z"}}, {"type": "Feature", "geometry": {"type": "Point", "coordinates": [75.8546734, 22.7161434]}, "properties": {"amenity": "clinic", "name": "Jain Homeo", "source_id": "node/6217789686", "edited_at": "2019-06-04T18:20:51Z"}}, {"type": "Feature", "geometry": {"type": "Point", "coordinates": [75.8546037, 22.7164787]}, "properties": {"amenity": "pharmacy", "name": "Relief Chemist", "source_id": "node/6217789687", "edited_at": "2019-06-04T18:20:51Z"}}, {"type": "Feature", "geometry": {"type": "Point", "coordinates": [75.8589991, 22.7245354]}, "properties": {"amenity": "waste_basket", "source_id": "node/6316740107", "edited_at": "2019-10-30T20:13:27Z"}}, {"type": "Feature", "geometry": {"type": "Point", "coordinates": [75.8594097, 22.7238113]}, "properties": {"amenity": "waste_basket", "source_id": "node/6316740163", "edited_at": "2025-05-24T10:22:07Z"}}, {"type": "Feature", "geometry": {"type": "Point", "coordinates": [75.8597002, 22.7238073]}, "properties": {"amenity": "waste_basket", "source_id": "node/6316743050", "edited_at": "2025-05-24T10:22:07Z"}}, {"type": "Feature", "geometry": {"type": "Point", "coordinates": [75.8617128, 22.7239367]}, "properties": {"amenity": "waste_basket", "source_id": "node/6316743519", "edited_at": "2019-10-30T20:23:29Z"}}, {"type": "Feature", "geometry": {"type": "Point", "coordinates": [75.8617503, 22.7240901]}, "properties": {"amenity": "waste_basket", "source_id": "node/6316743564", "edited_at": "2019-10-30T20:23:29Z"}}, {"type": "Feature", "geometry": {"type": "Point", "coordinates": [75.8640008, 22.7188563]}, "properties": {"amenity": "waste_basket", "source_id": "node/6316775954", "edited_at": "2019-03-04T18:41:14Z"}}, {"type": "Feature", "geometry": {"type": "Point", "coordinates": [75.8634388, 22.7188538]}, "properties": {"amenity": "waste_basket", "source_id": "node/6316786258", "edited_at": "2019-03-04T18:43:14Z"}}, {"type": "Feature", "geometry": {"type": "Point", "coordinates": [75.8630633, 22.7187548]}, "properties": {"amenity": "waste_basket", "source_id": "node/6316786259", "edited_at": "2019-03-04T18:43:31Z"}}, {"type": "Feature", "geometry": {"type": "Point", "coordinates": [75.8631398, 22.7186955]}, "properties": {"amenity": "waste_basket", "source_id": "node/6316786675", "edited_at": "2019-03-04T18:42:41Z"}}, {"type": "Feature", "geometry": {"type": "Point", "coordinates": [75.8637178, 22.7187845]}, "properties": {"amenity": "waste_basket", "source_id": "node/6316786676", "edited_at": "2019-03-04T18:42:58Z"}}, {"type": "Feature", "geometry": {"type": "Point", "coordinates": [75.8628273, 22.7186757]}, "properties": {"amenity": "waste_basket", "source_id": "node/6316787504", "edited_at": "2019-03-04T18:43:48Z"}}, {"type": "Feature", "geometry": {"type": "Point", "coordinates": [75.8630405, 22.7179319]}, "properties": {"amenity": "waste_basket", "source_id": "node/6316787843", "edited_at": "2019-03-04T18:45:03Z"}}, {"type": "Feature", "geometry": {"type": "Point", "coordinates": [75.8626985, 22.7198237]}, "properties": {"amenity": "waste_basket", "source_id": "node/6316788462", "edited_at": "2019-03-04T18:44:48Z"}}, {"type": "Feature", "geometry": {"type": "Point", "coordinates": [75.8632243, 22.7176365]}, "properties": {"amenity": "waste_basket", "source_id": "node/6316788762", "edited_at": "2019-03-04T18:44:07Z"}}, {"type": "Feature", "geometry": {"type": "Point", "coordinates": [75.8609953, 22.7195135]}, "properties": {"amenity": "waste_basket", "source_id": "node/6316789170", "edited_at": "2021-02-28T12:12:11Z"}}, {"type": "Feature", "geometry": {"type": "Point", "coordinates": [75.8598661, 22.7199424]}, "properties": {"amenity": "waste_basket", "source_id": "node/6316789171", "edited_at": "2019-03-04T18:45:36Z"}}, {"type": "Feature", "geometry": {"type": "Point", "coordinates": [75.859437, 22.718933]}, "properties": {"amenity": "waste_basket", "source_id": "node/6316789818", "edited_at": "2019-03-04T18:45:52Z"}}, {"type": "Feature", "geometry": {"type": "Point", "coordinates": [75.8593726, 22.7187549]}, "properties": {"amenity": "waste_basket", "source_id": "node/6316790761", "edited_at": "2019-03-04T18:46:17Z"}}, {"type": "Feature", "geometry": {"type": "Point", "coordinates": [75.8598017, 22.7187153]}, "properties": {"amenity": "waste_basket", "source_id": "node/6316791070", "edited_at": "2019-03-04T18:46:38Z"}}, {"type": "Feature", "geometry": {"type": "Point", "coordinates": [75.8595443, 22.7182402]}, "properties": {"amenity": "waste_basket", "source_id": "node/6316792355", "edited_at": "2019-03-04T18:47:05Z"}}, {"type": "Feature", "geometry": {"type": "Point", "coordinates": [75.8593726, 22.7178246]}, "properties": {"amenity": "waste_basket", "source_id": "node/6316792890", "edited_at": "2019-03-04T18:47:21Z"}}, {"type": "Feature", "geometry": {"type": "Point", "coordinates": [75.8592113, 22.7199906]}, "properties": {"amenity": "waste_basket", "source_id": "node/6316793811", "edited_at": "2019-03-04T18:47:52Z"}}, {"type": "Feature", "geometry": {"type": "Point", "coordinates": [75.860823, 22.723998]}, "properties": {"amenity": "waste_basket", "source_id": "node/6316797341", "edited_at": "2019-10-30T20:23:29Z"}}, {"type": "Feature", "geometry": {"type": "Point", "coordinates": [75.8576505, 22.7228776]}, "properties": {"amenity": "waste_basket", "source_id": "node/6316802306", "edited_at": "2022-02-14T16:12:03Z"}}, {"type": "Feature", "geometry": {"type": "Point", "coordinates": [75.8582689, 22.7231642]}, "properties": {"amenity": "waste_basket", "source_id": "node/6316802671", "edited_at": "2019-10-30T20:13:27Z"}}, {"type": "Feature", "geometry": {"type": "Point", "coordinates": [75.8627785, 22.719354]}, "properties": {"amenity": "atm", "name": "Axis Bank", "source_id": "node/6318299271", "edited_at": "2025-02-19T05:17:28Z"}}, {"type": "Feature", "geometry": {"type": "Point", "coordinates": [75.8616882, 22.72392]}, "properties": {"amenity": "atm", "source_id": "node/6318326028", "edited_at": "2025-03-03T15:22:14Z"}}, {"type": "Feature", "geometry": {"type": "Point", "coordinates": [75.8575923, 22.722868]}, "properties": {"amenity": "atm", "source_id": "node/6318339445", "edited_at": "2019-10-30T20:13:27Z"}}, {"type": "Feature", "geometry": {"type": "Point", "coordinates": [75.8614641, 22.71826]}, "properties": {"amenity": "atm", "name": "State Bank of India", "source_id": "node/6318355289", "edited_at": "2025-03-03T15:30:51Z"}}, {"type": "Feature", "geometry": {"type": "Point", "coordinates": [75.8555204, 22.7180537]}, "properties": {"amenity": "atm", "name": "ICICI Bank", "source_id": "node/6318364008", "edited_at": "2026-06-05T13:11:55Z"}}, {"type": "Feature", "geometry": {"type": "Point", "coordinates": [75.8648443, 22.7189973]}, "properties": {"amenity": "atm", "name": "State Bank of India", "source_id": "node/6318416245", "edited_at": "2025-03-03T15:30:54Z"}}, {"type": "Feature", "geometry": {"type": "Point", "coordinates": [75.8616444, 22.7194624]}, "properties": {"amenity": "atm", "source_id": "node/6318422124", "edited_at": "2019-03-05T14:37:44Z"}}, {"type": "Feature", "geometry": {"type": "Point", "coordinates": [75.8616176, 22.7201298]}, "properties": {"amenity": "atm", "source_id": "node/6318439471", "edited_at": "2025-03-03T15:26:37Z"}}, {"type": "Feature", "geometry": {"type": "Point", "coordinates": [75.8622935, 22.7186689]}, "properties": {"amenity": "toilets", "name": "Sulabh Complex", "source_id": "node/6318445141", "edited_at": "2019-03-05T14:47:55Z"}}, {"type": "Feature", "geometry": {"type": "Point", "coordinates": [75.8616398, 22.7184277]}, "properties": {"amenity": "atm", "name": "Canara Bank", "name:en": "Canara Bank", "source_id": "node/6318458054", "edited_at": "2025-02-19T05:17:28Z"}}, {"type": "Feature", "geometry": {"type": "Point", "coordinates": [75.8612287, 22.7179557]}, "properties": {"amenity": "atm", "name": "Axis Bank", "source_id": "node/6318458350", "edited_at": "2025-02-19T05:17:28Z"}}, {"type": "Feature", "geometry": {"type": "Point", "coordinates": [75.859386, 22.7187091]}, "properties": {"amenity": "toilets", "name": "SBM Toilet", "source_id": "node/6318473207", "edited_at": "2019-03-05T14:59:51Z"}}, {"type": "Feature", "geometry": {"type": "Point", "coordinates": [75.8593297, 22.7176514]}, "properties": {"amenity": "toilets", "name": "Sulabh Complex", "source_id": "node/6318482330", "edited_at": "2019-03-05T15:04:19Z"}}, {"type": "Feature", "geometry": {"type": "Point", "coordinates": [75.8603436, 22.721446]}, "properties": {"amenity": "atm", "source_id": "node/6318507176", "edited_at": "2025-03-03T15:30:56Z"}}, {"type": "Feature", "geometry": {"type": "Point", "coordinates": [75.8614848, 22.7230758]}, "properties": {"amenity": "toilets", "name": "Sulabh Complex", "source_id": "node/6318516891", "edited_at": "2019-10-30T20:23:29Z"}}, {"type": "Feature", "geometry": {"type": "Point", "coordinates": [75.8500533, 22.715708]}, "properties": {"amenity": "atm", "source_id": "node/6318702326", "edited_at": "2019-03-05T16:43:00Z"}}, {"type": "Feature", "geometry": {"type": "Point", "coordinates": [75.8555961, 22.7176396]}, "properties": {"amenity": "atm", "name": "State Bank of India", "source_id": "node/6318706092", "edited_at": "2025-03-03T15:30:57Z"}}, {"type": "Feature", "geometry": {"type": "Point", "coordinates": [75.8501379, 22.719324]}, "properties": {"amenity": "atm", "name": "ICICI Bank", "source_id": "node/6318734087", "edited_at": "2025-06-27T02:59:42Z"}}, {"type": "Feature", "geometry": {"type": "Point", "coordinates": [75.8534195, 22.7238013]}, "properties": {"amenity": "toilets", "name": "Sulabh Complex", "source_id": "node/6320188131", "edited_at": "2019-10-30T11:45:26Z"}}, {"type": "Feature", "geometry": {"type": "Point", "coordinates": [75.853851, 22.7227937]}, "properties": {"amenity": "atm", "source_id": "node/6320194839", "edited_at": "2019-10-30T11:45:26Z"}}, {"type": "Feature", "geometry": {"type": "Point", "coordinates": [75.8542003, 22.7224223]}, "properties": {"amenity": "atm", "source_id": "node/6320200899", "edited_at": "2019-10-30T11:45:26Z"}}, {"type": "Feature", "geometry": {"type": "Point", "coordinates": [75.8587557, 22.7245027]}, "properties": {"amenity": "toilets", "name": "Sulabh Complex", "source_id": "node/6320298162", "edited_at": "2019-10-30T20:13:27Z"}}, {"type": "Feature", "geometry": {"type": "Point", "coordinates": [75.8582005, 22.723309]}, "properties": {"amenity": "fuel", "name": "G J And Company", "source_id": "node/6320310257", "edited_at": "2019-10-30T20:13:27Z"}}, {"type": "Feature", "geometry": {"type": "Point", "coordinates": [75.8575634, 22.7229811]}, "properties": {"amenity": "atm", "source_id": "node/6320314216", "edited_at": "2025-03-03T15:31:08Z"}}, {"type": "Feature", "geometry": {"type": "Point", "coordinates": [75.8569827, 22.7235341]}, "properties": {"amenity": "atm", "source_id": "node/6320322474", "edited_at": "2025-03-03T15:26:44Z"}}, {"type": "Feature", "geometry": {"type": "Point", "coordinates": [75.8571236, 22.7249294]}, "properties": {"amenity": "atm", "source_id": "node/6320343715", "edited_at": "2019-10-30T20:13:27Z"}}, {"type": "Feature", "geometry": {"type": "Point", "coordinates": [75.8644164, 22.7236102]}, "properties": {"amenity": "toilets", "name": "Swachh Bharat Mission", "source_id": "node/6320579786", "edited_at": "2019-10-30T20:23:29Z"}}, {"type": "Feature", "geometry": {"type": "Point", "coordinates": [75.8645546, 22.7223323]}, "properties": {"amenity": "toilets", "name": "Sulabh Complex", "source_id": "node/6320585119", "edited_at": "2019-10-30T20:23:29Z"}}, {"type": "Feature", "geometry": {"type": "Point", "coordinates": [75.8558562, 22.7162288]}, "properties": {"amenity": "atm", "source_id": "node/6320819183", "edited_at": "2019-03-06T13:38:51Z"}}, {"type": "Feature", "geometry": {"type": "Point", "coordinates": [75.8551133, 22.7162634]}, "properties": {"amenity": "atm", "source_id": "node/6320822296", "edited_at": "2019-03-06T13:34:37Z"}}, {"type": "Feature", "geometry": {"type": "Point", "coordinates": [75.8583619, 22.7183516]}, "properties": {"amenity": "toilets", "name": "Swachh Bharat Mission", "source_id": "node/6320841338", "edited_at": "2025-02-19T05:17:28Z"}}, {"type": "Feature", "geometry": {"type": "Point", "coordinates": [75.8636011, 22.7204718]}, "properties": {"amenity": "toilets", "name": "Swachh Bharat Mission", "source_id": "node/6320850939", "edited_at": "2019-10-30T20:23:29Z"}}, {"type": "Feature", "geometry": {"type": "Point", "coordinates": [75.8637137, 22.7217645]}, "properties": {"amenity": "toilets", "name": "Swachh Bharat Mission", "source_id": "node/6320859131", "edited_at": "2019-10-30T20:23:29Z"}}, {"type": "Feature", "geometry": {"type": "Point", "coordinates": [75.856968, 22.7197779]}, "properties": {"amenity": "toilets", "name": "Swachh Bharat Mission", "source_id": "node/6320863459", "edited_at": "2019-03-06T13:49:29Z"}}, {"type": "Feature", "geometry": {"type": "Point", "coordinates": [75.8599771, 22.7213003]}, "properties": {"amenity": "toilets", "name": "Swachh Bharat Mission", "source_id": "node/6320872385", "edited_at": "2019-10-30T20:13:27Z"}}, {"type": "Feature", "geometry": {"type": "Point", "coordinates": [75.8617017, 22.723886]}, "properties": {"amenity": "toilets", "name": "Swachh Bharat Mission", "source_id": "node/6320885800", "edited_at": "2019-10-30T20:23:29Z"}}, {"type": "Feature", "geometry": {"type": "Point", "coordinates": [75.8627892, 22.7245957]}, "properties": {"amenity": "toilets", "name": "Swachh Bharat Mission", "source_id": "node/6320885801", "edited_at": "2019-10-30T20:23:29Z"}}, {"type": "Feature", "geometry": {"type": "Point", "coordinates": [75.8589823, 22.7238483]}, "properties": {"amenity": "toilets", "name": "Swachh Bharat Mission", "source_id": "node/6320892756", "edited_at": "2019-10-30T20:13:27Z"}}, {"type": "Feature", "geometry": {"type": "Point", "coordinates": [75.8577069, 22.7228469]}, "properties": {"amenity": "toilets", "name": "Swachh Bharat Mission", "source_id": "node/6320897653", "edited_at": "2019-10-30T20:13:27Z"}}, {"type": "Feature", "geometry": {"type": "Point", "coordinates": [75.8598862, 22.7240128]}, "properties": {"amenity": "atm", "source_id": "node/6320908210", "edited_at": "2025-03-03T15:31:09Z"}}, {"type": "Feature", "geometry": {"type": "Point", "coordinates": [75.8552958, 22.7231739]}, "properties": {"amenity": "toilets", "name": "Sulabh Complex", "source_id": "node/6320908576", "edited_at": "2019-10-30T20:13:27Z"}}, {"type": "Feature", "geometry": {"type": "Point", "coordinates": [75.8536542, 22.7226224]}, "properties": {"amenity": "toilets", "name": "Sulabh Complex", "source_id": "node/6320914618", "edited_at": "2019-10-30T11:45:26Z"}}, {"type": "Feature", "geometry": {"type": "Point", "coordinates": [75.8529239, 22.7223466]}, "properties": {"amenity": "toilets", "name": "Swachh Bharat Mission", "source_id": "node/6320917945", "edited_at": "2019-10-30T11:45:26Z"}}, {"type": "Feature", "geometry": {"type": "Point", "coordinates": [75.8516014, 22.7222935]}, "properties": {"amenity": "toilets", "name": "Swachh Bharat Mission", "source_id": "node/6320925474", "edited_at": "2019-10-30T11:45:26Z"}}, {"type": "Feature", "geometry": {"type": "Point", "coordinates": [75.8546633, 22.7144114]}, "properties": {"amenity": "toilets", "name": "Swacch Bharat Toilet", "source_id": "node/6320936133", "edited_at": "2019-10-30T08:08:24Z"}}, {"type": "Feature", "geometry": {"type": "Point", "coordinates": [75.855702, 22.7171352]}, "properties": {"amenity": "atm", "source_id": "node/6320936496", "edited_at": "2019-10-31T11:07:45Z"}}, {"type": "Feature", "geometry": {"type": "Point", "coordinates": [75.8555102, 22.7161842]}, "properties": {"amenity": "atm", "source_id": "node/6320938540", "edited_at": "2019-03-06T14:19:16Z"}}, {"type": "Feature", "geometry": {"type": "Point", "coordinates": [75.8546888, 22.7143954]}, "properties": {"amenity": "waste_basket", "source_id": "node/6320940936", "edited_at": "2019-10-30T08:08:24Z"}}, {"type": "Feature", "geometry": {"type": "Point", "coordinates": [75.8554016, 22.7143094]}, "properties": {"amenity": "atm", "source_id": "node/6320943888", "edited_at": "2019-10-30T16:43:08Z"}}, {"type": "Feature", "geometry": {"type": "Point", "coordinates": [75.8586122, 22.7136748]}, "properties": {"amenity": "toilets", "name": "SBM Toilet", "source_id": "node/6320975289", "edited_at": "2019-10-30T16:43:08Z"}}, {"type": "Feature", "geometry": {"type": "Point", "coordinates": [75.8576841, 22.7134793]}, "properties": {"amenity": "toilets", "name": "SBM Toilet", "source_id": "node/6320975290", "edited_at": "2019-10-30T16:43:08Z"}}, {"type": "Feature", "geometry": {"type": "Point", "coordinates": [75.858301, 22.7137416]}, "properties": {"amenity": "school", "name": "Shaskiya Madhyamik Vidhyalay Kramak 52", "source_id": "node/6320975291", "edited_at": "2019-10-30T16:43:08Z"}}, {"type": "Feature", "geometry": {"type": "Point", "coordinates": [75.8638841, 22.7162733]}, "properties": {"amenity": "atm", "name": "State Bank of India", "source_id": "node/6321001032", "edited_at": "2025-03-03T15:31:13Z"}}, {"type": "Feature", "geometry": {"type": "Point", "coordinates": [75.8602443, 22.7162312]}, "properties": {"amenity": "fuel", "name": "HP", "source_id": "node/6321024562", "edited_at": "2019-06-04T18:20:51Z"}}, {"type": "Feature", "geometry": {"type": "Point", "coordinates": [75.8606949, 22.7162584]}, "properties": {"amenity": "waste_basket", "source_id": "node/6321031763", "edited_at": "2019-03-06T15:03:37Z"}}, {"type": "Feature", "geometry": {"type": "Point", "coordinates": [75.8605877, 22.7162387]}, "properties": {"amenity": "atm", "name": "State Bank of India", "source_id": "node/6321035064", "edited_at": "2025-03-03T15:31:16Z"}}, {"type": "Feature", "geometry": {"type": "Point", "coordinates": [75.8530969, 22.7109339]}, "properties": {"amenity": "toilets", "name": "SBM Toilet", "source_id": "node/6321214495", "edited_at": "2019-10-30T08:08:24Z"}}, {"type": "Feature", "geometry": {"type": "Point", "coordinates": [75.8502269, 22.7137348]}, "properties": {"amenity": "toilets", "name": "SBM Toilet", "source_id": "node/6321230856", "edited_at": "2019-10-30T08:08:24Z"}}, {"type": "Feature", "geometry": {"type": "Point", "coordinates": [75.8511731, 22.7165059]}, "properties": {"amenity": "toilets", "name": "Sulabh Complex", "source_id": "node/6321250485", "edited_at": "2019-03-06T16:24:22Z"}}, {"type": "Feature", "geometry": {"type": "Point", "coordinates": [75.853858, 22.7162411]}, "properties": {"amenity": "waste_basket", "source_id": "node/6321253577", "edited_at": "2019-03-06T16:28:07Z"}}, {"type": "Feature", "geometry": {"type": "Point", "coordinates": [75.8551991, 22.7164589]}, "properties": {"amenity": "waste_basket", "source_id": "node/6321255224", "edited_at": "2019-03-06T16:29:21Z"}}, {"type": "Feature", "geometry": {"type": "Point", "coordinates": [75.8555102, 22.7165083]}, "properties": {"amenity": "waste_basket", "source_id": "node/6321256599", "edited_at": "2019-03-06T16:30:04Z"}}, {"type": "Feature", "geometry": {"type": "Point", "coordinates": [75.8554713, 22.7143651]}, "properties": {"amenity": "waste_basket", "source_id": "node/6321259585", "edited_at": "2019-10-30T16:43:08Z"}}, {"type": "Feature", "geometry": {"type": "Point", "coordinates": [75.862602, 22.7100853]}, "properties": {"amenity": "waste_basket", "source_id": "node/6321276923", "edited_at": "2019-03-06T16:34:17Z"}}, {"type": "Feature", "geometry": {"type": "Point", "coordinates": [75.8553747, 22.7107824]}, "properties": {"amenity": "waste_basket", "source_id": "node/6321276930", "edited_at": "2019-10-30T16:43:08Z"}}, {"type": "Feature", "geometry": {"type": "Point", "coordinates": [75.8558683, 22.7112179]}, "properties": {"amenity": "waste_basket", "source_id": "node/6321276931", "edited_at": "2019-10-30T16:43:08Z"}}, {"type": "Feature", "geometry": {"type": "Point", "coordinates": [75.8553962, 22.7110991]}, "properties": {"amenity": "waste_basket", "source_id": "node/6321276932", "edited_at": "2019-10-30T16:43:08Z"}}, {"type": "Feature", "geometry": {"type": "Point", "coordinates": [75.8556644, 22.7115643]}, "properties": {"amenity": "waste_basket", "source_id": "node/6321276933", "edited_at": "2019-10-30T16:43:08Z"}}, {"type": "Feature", "geometry": {"type": "Point", "coordinates": [75.8554713, 22.7115445]}, "properties": {"amenity": "waste_basket", "source_id": "node/6321276934", "edited_at": "2019-10-30T16:43:08Z"}}, {"type": "Feature", "geometry": {"type": "Point", "coordinates": [75.8555357, 22.7119601]}, "properties": {"amenity": "waste_basket", "source_id": "node/6321276935", "edited_at": "2019-10-30T16:43:08Z"}}, {"type": "Feature", "geometry": {"type": "Point", "coordinates": [75.8563028, 22.7107923]}, "properties": {"amenity": "toilets", "name": "SBM Toilet", "source_id": "node/6321277418", "edited_at": "2019-10-30T16:43:08Z"}}, {"type": "Feature", "geometry": {"type": "Point", "coordinates": [75.8641804, 22.7132214]}, "properties": {"amenity": "waste_basket", "source_id": "node/6321283805", "edited_at": "2019-10-30T16:35:04Z"}}, {"type": "Feature", "geometry": {"type": "Point", "coordinates": [75.8649838, 22.7161125]}, "properties": {"amenity": "waste_basket", "source_id": "node/6321283810", "edited_at": "2019-03-06T16:36:01Z"}}, {"type": "Feature", "geometry": {"type": "Point", "coordinates": [75.8640504, 22.7162114]}, "properties": {"amenity": "waste_basket", "source_id": "node/6321283811", "edited_at": "2019-03-06T16:36:01Z"}}, {"type": "Feature", "geometry": {"type": "Point", "coordinates": [75.8562653, 22.7104038]}, "properties": {"amenity": "toilets", "name": "SBM Toilet", "source_id": "node/6321288917", "edited_at": "2019-10-30T16:43:08Z"}}, {"type": "Feature", "geometry": {"type": "Point", "coordinates": [75.8555357, 22.7116731]}, "properties": {"amenity": "toilets", "name": "SBM Toilet", "source_id": "node/6321329568", "edited_at": "2019-10-30T16:43:08Z"}}, {"type": "Feature", "geometry": {"type": "Point", "coordinates": [75.8557503, 22.7124278]}, "properties": {"amenity": "toilets", "name": "SBM Toilet", "source_id": "node/6321331548", "edited_at": "2019-10-30T16:43:08Z"}}, {"type": "Feature", "geometry": {"type": "Point", "coordinates": [75.8566837, 22.7129498]}, "properties": {"amenity": "toilets", "name": "Sulabh Complex", "source_id": "node/6321333615", "edited_at": "2019-10-30T16:43:08Z"}}, {"type": "Feature", "geometry": {"type": "Point", "coordinates": [75.8589515, 22.710162]}, "properties": {"amenity": "toilets", "name": "SBM Toilet", "source_id": "node/6321346421", "edited_at": "2019-10-30T14:37:04Z"}}, {"type": "Feature", "geometry": {"type": "Point", "coordinates": [75.8601384, 22.7115766]}, "properties": {"amenity": "toilets", "name": "SBM Toilet", "source_id": "node/6321407785", "edited_at": "2019-10-30T16:43:08Z"}}, {"type": "Feature", "geometry": {"type": "Point", "coordinates": [75.859268, 22.717644]}, "properties": {"amenity": "toilets", "name": "Sulabh Complex", "source_id": "node/6321410703", "edited_at": "2019-03-06T17:27:01Z"}}, {"type": "Feature", "geometry": {"type": "Point", "coordinates": [75.8609645, 22.7148593]}, "properties": {"amenity": "toilets", "name": "SBM Toilet", "source_id": "node/6321413986", "edited_at": "2019-10-30T16:37:53Z"}}, {"type": "Feature", "geometry": {"type": "Point", "coordinates": [75.8639793, 22.7113026]}, "properties": {"amenity": "toilets", "name": "SBM Toilet", "source_id": "node/6321506436", "edited_at": "2019-03-06T18:14:49Z"}}, {"type": "Feature", "geometry": {"type": "Point", "coordinates": [75.8643735, 22.7134293]}, "properties": {"amenity": "toilets", "name": "Sulabh Complex", "source_id": "node/6321524470", "edited_at": "2019-10-30T16:35:04Z"}}, {"type": "Feature", "geometry": {"type": "Point", "coordinates": [75.8628272, 22.7195862]}, "properties": {"amenity": "atm", "name": "IndusInd Bank", "source_id": "node/6321623303", "edited_at": "2025-02-19T05:17:28Z"}}, {"type": "Feature", "geometry": {"type": "Point", "coordinates": [75.8615828, 22.7197544]}, "properties": {"amenity": "atm", "source_id": "node/6321637850", "edited_at": "2019-03-06T19:06:50Z"}}, {"type": "Feature", "geometry": {"type": "Point", "coordinates": [75.8642986, 22.7243756]}, "properties": {"amenity": "hospital", "name": "Aman Hospital", "source_id": "node/6341135653", "edited_at": "2019-11-27T19:10:15Z"}}, {"type": "Feature", "geometry": {"type": "Point", "coordinates": [75.8544863, 22.7134478]}, "properties": {"amenity": "hospital", "name": "Aarogya Hospital", "source_id": "node/6341224185", "edited_at": "2019-10-30T08:08:24Z"}}, {"type": "Feature", "geometry": {"type": "Point", "coordinates": [75.8551294, 22.7164613]}, "properties": {"amenity": "hospital", "name": "Dr. Waghmare Nursing Home", "source_id": "node/6341580970", "edited_at": "2019-06-04T18:20:51Z"}}, {"type": "Feature", "geometry": {"type": "Point", "coordinates": [75.8504362, 22.7246041]}, "properties": {"amenity": "clinic", "name": "Seva Clinic", "source_id": "node/6341580971", "edited_at": "2022-01-06T08:57:14Z"}}, {"type": "Feature", "geometry": {"type": "Point", "coordinates": [75.8554512, 22.7202492]}, "properties": {"amenity": "hospital", "name": "अर्पण नर्सिंग होम", "name:en": "Arpan Nursing Home", "source_id": "node/6341878320", "edited_at": "2025-04-23T21:59:10Z"}}, {"type": "Feature", "geometry": {"type": "Point", "coordinates": [75.8575876, 22.7103791]}, "properties": {"amenity": "atm", "source_id": "node/6350238714", "edited_at": "2019-10-30T16:43:08Z"}}, {"type": "Feature", "geometry": {"type": "Point", "coordinates": [75.8632398, 22.714202]}, "properties": {"amenity": "school", "name": "Government Urdu Girls Secondary School Hathipala", "source_id": "node/6374320001", "edited_at": "2021-08-19T08:13:54Z"}}, {"type": "Feature", "geometry": {"type": "Point", "coordinates": [75.8633109, 22.7139437]}, "properties": {"amenity": "school", "name": "Government Urdu Girls Higher Secondary School Hathipala", "source_id": "node/6374328396", "edited_at": "2021-08-19T08:13:54Z"}}, {"type": "Feature", "geometry": {"type": "Point", "coordinates": [75.8550891, 22.711982]}, "properties": {"amenity": "school", "name": "Government New Urdu Girls School Moti Tabela", "source_id": "node/6374343319", "edited_at": "2019-10-30T08:08:24Z"}}, {"type": "Feature", "geometry": {"type": "Point", "coordinates": [75.8516968, 22.7137199]}, "properties": {"amenity": "school", "name": "Nayapitha Urdu School", "source_id": "node/6374426997", "edited_at": "2021-08-19T08:13:54Z"}}, {"type": "Feature", "geometry": {"type": "Point", "coordinates": [75.8643991, 22.711414]}, "properties": {"amenity": "school", "name": "Government Rajat Jayanti Girls Higher Secondary School", "source_id": "node/6374426998", "edited_at": "2021-08-19T08:13:54Z"}}, {"type": "Feature", "geometry": {"type": "Point", "coordinates": [75.857318, 22.7195713]}, "properties": {"amenity": "school", "name": "Government Primary School Number 28", "source_id": "node/6374426999", "edited_at": "2021-08-19T08:13:54Z"}}, {"type": "Feature", "geometry": {"type": "Point", "coordinates": [75.8576265, 22.7210093]}, "properties": {"amenity": "school", "name": "Govt Navin Malaw Girls High School Indore", "source_id": "node/6374427000", "edited_at": "2021-08-19T08:13:54Z"}}, {"type": "Feature", "geometry": {"type": "Point", "coordinates": [75.8566529, 22.7198533]}, "properties": {"amenity": "school", "name": "Government Higher Secondary School Vivekanand", "source_id": "node/6374427001", "edited_at": "2021-08-19T08:13:54Z"}}, {"type": "Feature", "geometry": {"type": "Point", "coordinates": [75.8543395, 22.7206172]}, "properties": {"amenity": "school", "name": "Kasturba Girls Higher Secondary School", "source_id": "node/6374427002", "edited_at": "2021-08-19T08:13:54Z"}}, {"type": "Feature", "geometry": {"type": "Point", "coordinates": [75.8610798, 22.7244612]}, "properties": {"amenity": "school", "name": "Government Maharaja Shivaji Rao Higher Secondary School", "source_id": "node/6374427003", "edited_at": "2023-02-03T07:11:50Z"}}, {"type": "Feature", "geometry": {"type": "Point", "coordinates": [75.8559398, 22.7163985]}, "properties": {"amenity": "pharmacy", "name": "Amir Medical Stores", "source_id": "node/6376240643", "edited_at": "2019-06-04T18:20:51Z"}}, {"type": "Feature", "geometry": {"type": "Point", "coordinates": [75.8561808, 22.7188664]}, "properties": {"amenity": "pharmacy", "name": "Pankaj Medical Stores", "source_id": "node/6376348358", "edited_at": "2019-06-04T18:20:51Z"}}, {"type": "Feature", "geometry": {"type": "Point", "coordinates": [75.8563668, 22.7186517]}, "properties": {"amenity": "pharmacy", "name": "Chandra Medical Stores", "source_id": "node/6376352335", "edited_at": "2019-06-04T18:20:51Z"}}, {"type": "Feature", "geometry": {"type": "Point", "coordinates": [75.8564787, 22.7186068]}, "properties": {"amenity": "pharmacy", "name": "Bombay Agency Ayurvedic Medical", "source_id": "node/6376353751", "edited_at": "2019-06-04T18:20:51Z"}}, {"type": "Feature", "geometry": {"type": "Point", "coordinates": [75.856688, 22.7182915]}, "properties": {"amenity": "pharmacy", "name": "Shri Keshav Aoushadhalay", "source_id": "node/6376355222", "edited_at": "2019-06-04T18:20:51Z"}}, {"type": "Feature", "geometry": {"type": "Point", "coordinates": [75.8576126, 22.7164371]}, "properties": {"amenity": "pharmacy", "name": "Saraswati Medicose", "source_id": "node/6376356911", "edited_at": "2019-06-04T18:20:51Z"}}, {"type": "Feature", "geometry": {"type": "Point", "coordinates": [75.8548296, 22.7149174]}, "properties": {"amenity": "pharmacy", "name": "Meera Medicose", "source_id": "node/6376772079", "edited_at": "2019-10-30T08:08:24Z"}}, {"type": "Feature", "geometry": {"type": "Point", "coordinates": [75.858006, 22.7162065]}, "properties": {"amenity": "pharmacy", "name": "Raj Medical Store", "source_id": "node/6376772080", "edited_at": "2019-06-04T18:20:51Z"}}, {"type": "Feature", "geometry": {"type": "Point", "coordinates": [75.8558938, 22.7199783]}, "properties": {"amenity": "pharmacy", "name": "Sahu Medicose", "source_id": "node/6376772081", "edited_at": "2019-06-04T18:20:51Z"}}, {"type": "Feature", "geometry": {"type": "Point", "coordinates": [75.855639, 22.7200438]}, "properties": {"amenity": "pharmacy", "name": "Arpan Medical Store", "source_id": "node/6376772082", "edited_at": "2019-06-04T18:20:51Z"}}, {"type": "Feature", "geometry": {"type": "Point", "coordinates": [75.8516224, 22.7224975]}, "properties": {"amenity": "pharmacy", "name": "Munna Medicose", "source_id": "node/6376772785", "edited_at": "2019-10-30T11:45:26Z"}}, {"type": "Feature", "geometry": {"type": "Point", "coordinates": [75.8542778, 22.720731]}, "properties": {"amenity": "school", "name": "Savitri Kala Mandir Uchhatar Madhyamik Vidhalaya", "source_id": "node/6377572374", "edited_at": "2019-10-30T11:45:26Z"}}, {"type": "Feature", "geometry": {"type": "Point", "coordinates": [75.8606648, 22.7108381]}, "properties": {"amenity": "pharmacy", "name": "Aman Medical Store", "source_id": "node/6386316232", "edited_at": "2019-10-30T16:29:43Z"}}, {"type": "Feature", "geometry": {"type": "Point", "coordinates": [75.8622023, 22.7101076]}, "properties": {"amenity": "pharmacy", "name": "Honey Medical Stores", "source_id": "node/6386316233", "edited_at": "2019-04-05T18:30:23Z"}}, {"type": "Feature", "geometry": {"type": "Point", "coordinates": [75.8636749, 22.7162387]}, "properties": {"amenity": "pharmacy", "name": "Kavita Medical Stores", "source_id": "node/6386316234", "edited_at": "2019-04-05T18:30:24Z"}}, {"type": "Feature", "geometry": {"type": "Point", "coordinates": [75.8602148, 22.7165479]}, "properties": {"amenity": "pharmacy", "name": "Ideal Medical Store", "source_id": "node/6386316235", "edited_at": "2019-06-04T18:20:51Z"}}, {"type": "Feature", "geometry": {"type": "Point", "coordinates": [75.8527744, 22.7160679]}, "properties": {"amenity": "pharmacy", "name": "Gourav Medicos", "source_id": "node/6386316236", "edited_at": "2019-06-04T18:20:51Z"}}, {"type": "Feature", "geometry": {"type": "Point", "coordinates": [75.8515298, 22.7158824]}, "properties": {"amenity": "pharmacy", "name": "Faiz Medical Store", "source_id": "node/6386316237", "edited_at": "2019-06-04T18:20:51Z"}}, {"type": "Feature", "geometry": {"type": "Point", "coordinates": [75.8509961, 22.7171887]}, "properties": {"amenity": "pharmacy", "name": "Seva Aushadhi Bhandar", "source_id": "node/6386316239", "edited_at": "2019-06-04T18:20:51Z"}}, {"type": "Feature", "geometry": {"type": "Point", "coordinates": [75.8555531, 22.7175846]}, "properties": {"amenity": "pharmacy", "name": "Hariom Pharmacy", "source_id": "node/6386316240", "edited_at": "2019-06-04T18:20:51Z"}}, {"type": "Feature", "geometry": {"type": "Point", "coordinates": [75.8508807, 22.7192224]}, "properties": {"amenity": "pharmacy", "name": "Shyam Medicos", "source_id": "node/6386316241", "edited_at": "2019-06-04T18:20:51Z"}}, {"type": "Feature", "geometry": {"type": "Point", "coordinates": [75.8505683, 22.7217751]}, "properties": {"amenity": "pharmacy", "name": "Galaxy Medicos", "source_id": "node/6386316242", "edited_at": "2019-10-30T11:45:26Z"}}, {"type": "Feature", "geometry": {"type": "Point", "coordinates": [75.8575661, 22.7230665]}, "properties": {"amenity": "pharmacy", "name": "Maa karuna Medicos", "source_id": "node/6386316243", "edited_at": "2019-10-30T20:13:27Z"}}, {"type": "Feature", "geometry": {"type": "Point", "coordinates": [75.851194, 22.7186182]}, "properties": {"amenity": "place_of_worship", "name": "Jain mandir", "source_id": "node/6544614885", "edited_at": "2025-06-27T02:59:42Z"}}, {"type": "Feature", "geometry": {"type": "Point", "coordinates": [75.8641174, 22.7248979]}, "properties": {"amenity": "clinic", "name": "Arogya Nursing Home", "source_id": "node/7013597254", "edited_at": "2019-11-27T10:02:54Z"}}, {"type": "Feature", "geometry": {"type": "Point", "coordinates": [75.8523338, 22.7160382]}, "properties": {"amenity": "hospital", "name": "Vyas Children Hospital", "source_id": "node/7014275793", "edited_at": "2019-11-27T14:13:38Z"}}, {"type": "Feature", "geometry": {"type": "Point", "coordinates": [75.8645828, 22.7246134]}, "properties": {"amenity": "clinic", "name": "Ayesha Nursing Home", "source_id": "node/7015262885", "edited_at": "2019-11-27T19:10:15Z"}}, {"type": "Feature", "geometry": {"type": "Point", "coordinates": [75.8501874, 22.7157791]}, "properties": {"amenity": "hospital", "name": "Unique Hospital, Jawahar Marg", "source_id": "node/7015332162", "edited_at": "2019-11-27T19:51:06Z"}}, {"type": "Feature", "geometry": {"type": "Point", "coordinates": [75.8626637, 22.7168535]}, "properties": {"amenity": "clinic", "name": "Ansari Nursing Home", "source_id": "node/7015746776", "edited_at": "2019-11-27T23:32:42Z"}}, {"type": "Feature", "geometry": {"type": "Point", "coordinates": [75.8547941, 22.7164799]}, "properties": {"amenity": "hospital", "name": "Tanish Medical Care", "source_id": "node/7015790805", "edited_at": "2019-11-28T00:26:30Z"}}, {"type": "Feature", "geometry": {"type": "Point", "coordinates": [75.8546975, 22.716449]}, "properties": {"amenity": "doctors", "name": "Dr. R. N. Jaiswal", "source_id": "node/7015792942", "edited_at": "2019-11-28T00:28:20Z"}}, {"type": "Feature", "geometry": {"type": "Point", "coordinates": [75.8601022, 22.7238452]}, "properties": {"amenity": "clinic", "name": "Patidar Nursing Home, Indore", "source_id": "node/7015819771", "edited_at": "2019-11-28T00:45:28Z"}}, {"type": "Feature", "geometry": {"type": "Point", "coordinates": [75.8546828, 22.7164848]}, "properties": {"amenity": "clinic", "name": "Gill Diagnostic and Stone Clinic", "source_id": "node/7016355227", "edited_at": "2019-11-28T07:53:20Z"}}, {"type": "Feature", "geometry": {"type": "Point", "coordinates": [75.8566964, 22.7139222]}, "properties": {"amenity": "clinic", "name": "Government Civil Dispensary", "source_id": "node/7101781814", "edited_at": "2020-01-02T16:19:46Z"}}, {"type": "Feature", "geometry": {"type": "Point", "coordinates": [75.8626924, 22.7216495]}, "properties": {"amenity": "place_of_worship", "name": "Mangeshi mandir", "name:en": "Mangeshi mandir", "source_id": "node/10815868008", "edited_at": "2023-04-16T08:06:19Z"}}, {"type": "Feature", "geometry": {"type": "Point", "coordinates": [75.855234, 22.7180149]}, "properties": {"amenity": "place_of_worship", "name": "Banke Bihari Temple", "source_id": "node/11690381801", "edited_at": "2024-03-04T10:04:49Z"}}, {"type": "Feature", "geometry": {"type": "Point", "coordinates": [75.8585296, 22.718144]}, "properties": {"amenity": "photo_booth", "name": "Indore Statue Selfie Point", "source_id": "node/11690381803", "edited_at": "2024-03-04T10:04:49Z"}}, {"type": "Feature", "geometry": {"type": "Point", "coordinates": [75.8533373, 22.7160362]}, "properties": {"amenity": "waste_basket", "source_id": "node/13912310304", "edited_at": "2026-06-05T13:11:55Z"}}, {"type": "Feature", "geometry": {"type": "Point", "coordinates": [75.8541202, 22.7229517]}, "properties": {"amenity": "pharmacy", "source_id": "node/13912310307", "edited_at": "2026-06-05T13:11:55Z"}}, {"type": "Feature", "geometry": {"type": "Point", "coordinates": [75.8625589, 22.718769]}, "properties": {"amenity": "place_of_worship", "source_id": "node/13912310387", "edited_at": "2026-06-05T13:11:55Z"}}, {"type": "Feature", "geometry": {"type": "Point", "coordinates": [75.853483, 22.7160375]}, "properties": {"amenity": "fast_food", "name": "Madhushaal", "source_id": "node/13912310441", "edited_at": "2026-06-05T13:11:55Z"}}, {"type": "Feature", "geometry": {"type": "Point", "coordinates": [75.8557271, 22.7177095]}, "properties": {"amenity": "bank", "name": "State Bank of India", "source_id": "node/13912310446", "edited_at": "2026-06-05T13:11:55Z"}}, {"type": "Feature", "geometry": {"type": "Point", "coordinates": [75.8514604, 22.7224697]}, "properties": {"amenity": "cafe", "name": "Joshi Coffee House", "source_id": "node/13912310459", "edited_at": "2026-06-05T13:11:55Z"}}, {"type": "Feature", "geometry": {"type": "Point", "coordinates": [75.8601211, 22.7197358]}, "properties": {"amenity": "post_box", "source_id": "node/13912310486", "edited_at": "2026-06-05T13:11:55Z"}}, {"type": "Feature", "geometry": {"type": "Point", "coordinates": [75.8552739, 22.7186658]}, "properties": {"amenity": "bicycle_rental", "source_id": "node/13912310491", "edited_at": "2026-06-05T13:11:55Z"}}, {"type": "Feature", "geometry": {"type": "Point", "coordinates": [75.8609845, 22.7184442]}, "properties": {"amenity": "place_of_worship", "source_id": "node/13912310549", "edited_at": "2026-06-05T13:11:55Z"}}, {"type": "Feature", "geometry": {"type": "Point", "coordinates": [75.8533365, 22.715996]}, "properties": {"amenity": "restaurant", "name": "Shri Gajanand Bhojanalaya", "source_id": "node/13912310591", "edited_at": "2026-06-05T13:11:55Z"}}]}